{
"type": "FeatureCollection",
"name": "ipk_ipd_selangor",
"crs": { "type": "name", "properties": { "name": "urn:ogc:def:crs:OGC:1.3:CRS84" } },
"features": [
{ "type": "Feature", "properties": { "ID": 1, "HIERARKI": "KONTINJEN", "JENIS": "IPK", "UNIT": "PENGURUSAN", "IPD_INDUK": "IPK SELANGOR", "NAMA": "Ibu Pejabat Polis Kontinjen Selangor", "ALAMAT": "Persiaran Kayangan, Seksyen 9, 40000 Shah Alam, Selangor", "TELEFON": "03-55145222", "GEO_METHOD": "IPD_CENTROID", "GEO_CONF": "RENDAH", "LON_WGS84": 101.525, "LAT_WGS84": 3.0774, "STATUS": "PERLU_SEMAK_LOKASI", "web_hierarchy": "IPK", "web_name": "Ibu Pejabat Polis Kontinjen Selangor", "web_district": "-", "web_address": "Persiaran Kayangan, Seksyen 9, 40000 Shah Alam, Selangor", "web_phone": "03-55145222" }, "geometry": { "type": "Point", "coordinates": [ 101.519664159603835, 3.087456699052941 ] } },
{ "type": "Feature", "properties": { "ID": 2, "HIERARKI": "DAERAH", "JENIS": "IPD", "UNIT": "PENGURUSAN", "IPD_INDUK": "IPD Ampang Jaya", "NAMA": "IPD Ampang Jaya", "ALAMAT": "Taman Dagang, 68000 Ampang, Selangor", "TELEFON": "03-42897222", "GEO_METHOD": "LOCALITY_CENTROID", "GEO_CONF": "SEDERHANA", "LON_WGS84": 101.762, "LAT_WGS84": 3.1474, "STATUS": "PERLU_SEMAK_LOKASI", "web_hierarchy": "IPD", "web_name": "IPD Ampang Jaya", "web_district": "-", "web_address": "Taman Dagang, 68000 Ampang, Selangor", "web_phone": "03-42897222" }, "geometry": { "type": "Point", "coordinates": [ 101.756398125013789, 3.148629537557313 ] } },
{ "type": "Feature", "properties": { "ID": 3, "HIERARKI": "DAERAH", "JENIS": "IPD", "UNIT": "PENGURUSAN", "IPD_INDUK": "IPD Gombak", "NAMA": "IPD Gombak", "ALAMAT": "53100 Gombak, Selangor", "TELEFON": "03-61262222", "GEO_METHOD": "LOCALITY_CENTROID", "GEO_CONF": "SEDERHANA", "LON_WGS84": 101.695, "LAT_WGS84": 3.2303, "STATUS": "PERLU_SEMAK_LOKASI", "web_hierarchy": "IPD", "web_name": "IPD Gombak", "web_district": "-", "web_address": "53100 Gombak, Selangor", "web_phone": "03-61262222" }, "geometry": { "type": "Point", "coordinates": [ 101.641512735097635, 3.252940475266408 ] } },
{ "type": "Feature", "properties": { "ID": 4, "HIERARKI": "DAERAH", "JENIS": "IPD", "UNIT": "PENGURUSAN", "IPD_INDUK": "IPD Kuala Langat", "NAMA": "IPD Kuala Langat", "ALAMAT": "Jalan Sultan Alam Shah, 42700 Banting, Selangor", "TELEFON": "03-31872222", "GEO_METHOD": "IPD_CENTROID", "GEO_CONF": "RENDAH", "LON_WGS84": 101.5, "LAT_WGS84": 2.8132, "STATUS": "PERLU_SEMAK_LOKASI", "web_hierarchy": "IPD", "web_name": "IPD Kuala Langat", "web_district": "-", "web_address": "Jalan Sultan Alam Shah, 42700 Banting, Selangor", "web_phone": "03-31872222" }, "geometry": { "type": "Point", "coordinates": [ 101.49381405776073, 2.805190486094165 ] } },
{ "type": "Feature", "properties": { "ID": 5, "HIERARKI": "DAERAH", "JENIS": "IPD", "UNIT": "PENGURUSAN", "IPD_INDUK": "IPD Hulu Selangor", "NAMA": "IPD Hulu Selangor", "ALAMAT": "44000 Kuala Kubu Bharu, Selangor", "TELEFON": "03-60651021", "GEO_METHOD": "IPD_CENTROID", "GEO_CONF": "RENDAH", "LON_WGS84": 101.659, "LAT_WGS84": 3.5632, "STATUS": "PERLU_SEMAK_LOKASI", "web_hierarchy": "IPD", "web_name": "IPD Hulu Selangor", "web_district": "-", "web_address": "44000 Kuala Kubu Bharu, Selangor", "web_phone": "03-60651021" }, "geometry": { "type": "Point", "coordinates": [ 101.66029846111303, 3.562181559909012 ] } },
{ "type": "Feature", "properties": { "ID": 6, "HIERARKI": "DAERAH", "JENIS": "IPD", "UNIT": "PENGURUSAN", "IPD_INDUK": "IPD Kajang", "NAMA": "IPD Kajang", "ALAMAT": "Kajang, Selangor", "TELEFON": null, "GEO_METHOD": "LOCALITY_CENTROID", "GEO_CONF": "SEDERHANA", "LON_WGS84": 101.789, "LAT_WGS84": 2.9924, "STATUS": "PERLU_SEMAK_LOKASI", "web_hierarchy": "IPD", "web_name": "IPD Kajang", "web_district": "-", "web_address": "Kajang, Selangor", "web_phone": "None" }, "geometry": { "type": "Point", "coordinates": [ 101.788125213240406, 2.993989847747448 ] } },
{ "type": "Feature", "properties": { "ID": 7, "HIERARKI": "DAERAH", "JENIS": "IPD", "UNIT": "PENGURUSAN", "IPD_INDUK": "IPD Klang Selatan", "NAMA": "IPD Klang Selatan", "ALAMAT": "Jalan Gedung Raja Abdullah, 41560 Klang, Selangor", "TELEFON": "03-33762222", "GEO_METHOD": "LOCALITY_CENTROID", "GEO_CONF": "SEDERHANA", "LON_WGS84": 101.449, "LAT_WGS84": 3.0445, "STATUS": "PERLU_SEMAK_LOKASI", "web_hierarchy": "IPD", "web_name": "IPD Klang Selatan", "web_district": "-", "web_address": "Jalan Gedung Raja Abdullah, 41560 Klang, Selangor", "web_phone": "03-33762222" }, "geometry": { "type": "Point", "coordinates": [ 101.447101351567312, 3.043997416635369 ] } },
{ "type": "Feature", "properties": { "ID": 8, "HIERARKI": "DAERAH", "JENIS": "IPD", "UNIT": "PENGURUSAN", "IPD_INDUK": "IPD Klang Utara", "NAMA": "IPD Klang Utara", "ALAMAT": "Jalan Harapan 3A/KU7, Taman Sungai Kapar Indah, 42200 Kapar, Klang", "TELEFON": "03-32912222", "GEO_METHOD": "LOCALITY_CENTROID", "GEO_CONF": "SEDERHANA", "LON_WGS84": 101.449, "LAT_WGS84": 3.044, "STATUS": "PERLU_SEMAK_LOKASI", "web_hierarchy": "IPD", "web_name": "IPD Klang Utara", "web_district": "-", "web_address": "Jalan Harapan 3A/KU7, Taman Sungai Kapar Indah, 42200 Kapar, Klang", "web_phone": "03-32912222" }, "geometry": { "type": "Point", "coordinates": [ 101.376777856874753, 3.097098047841484 ] } },
{ "type": "Feature", "properties": { "ID": 9, "HIERARKI": "DAERAH", "JENIS": "IPD", "UNIT": "PENGURUSAN", "IPD_INDUK": "IPD Kuala Selangor", "NAMA": "IPD Kuala Selangor", "ALAMAT": "45000 Kuala Selangor, Selangor", "TELEFON": "03-32891222", "GEO_METHOD": "LOCALITY_CENTROID", "GEO_CONF": "SEDERHANA", "LON_WGS84": 101.25, "LAT_WGS84": 3.3413, "STATUS": "PERLU_SEMAK_LOKASI", "web_hierarchy": "IPD", "web_name": "IPD Kuala Selangor", "web_district": "-", "web_address": "45000 Kuala Selangor, Selangor", "web_phone": "03-32891222" }, "geometry": { "type": "Point", "coordinates": [ 101.265724814376611, 3.321120658899978 ] } },
{ "type": "Feature", "properties": { "ID": 10, "HIERARKI": "DAERAH", "JENIS": "IPD", "UNIT": "PENGURUSAN", "IPD_INDUK": "IPD Petaling Jaya", "NAMA": "IPD Petaling Jaya", "ALAMAT": "Jalan Pencala, 46050 Petaling Jaya, Selangor", "TELEFON": "03-79662222", "GEO_METHOD": "LOCALITY_CENTROID", "GEO_CONF": "SEDERHANA", "LON_WGS84": 101.645, "LAT_WGS84": 3.1069, "STATUS": "PERLU_SEMAK_LOKASI", "web_hierarchy": "IPD", "web_name": "IPD Petaling Jaya", "web_district": "-", "web_address": "Jalan Pencala, 46050 Petaling Jaya, Selangor", "web_phone": "03-79662222" }, "geometry": { "type": "Point", "coordinates": [ 101.641821703169427, 3.098979310723873 ] } },
{ "type": "Feature", "properties": { "ID": 11, "HIERARKI": "DAERAH", "JENIS": "IPD", "UNIT": "PENGURUSAN", "IPD_INDUK": "IPD Sabak Bernam", "NAMA": "IPD Sabak Bernam", "ALAMAT": "Sabak Bernam, Selangor", "TELEFON": null, "GEO_METHOD": "LOCALITY_CENTROID", "GEO_CONF": "SEDERHANA", "LON_WGS84": 100.989, "LAT_WGS84": 3.7694, "STATUS": "PERLU_SEMAK_LOKASI", "web_hierarchy": "IPD", "web_name": "IPD Sabak Bernam", "web_district": "-", "web_address": "Sabak Bernam, Selangor", "web_phone": "None" }, "geometry": { "type": "Point", "coordinates": [ 100.98871932892007, 3.678776307561586 ] } },
{ "type": "Feature", "properties": { "ID": 12, "HIERARKI": "DAERAH", "JENIS": "IPD", "UNIT": "PENGURUSAN", "IPD_INDUK": "IPD Sepang", "NAMA": "IPD Sepang", "ALAMAT": "43900 Sepang, Selangor", "TELEFON": "03-87774222", "GEO_METHOD": "LOCALITY_CENTROID", "GEO_CONF": "SEDERHANA", "LON_WGS84": 101.75, "LAT_WGS84": 2.6904, "STATUS": "PERLU_SEMAK_LOKASI", "web_hierarchy": "IPD", "web_name": "IPD Sepang", "web_district": "-", "web_address": "43900 Sepang, Selangor", "web_phone": "03-87774222" }, "geometry": { "type": "Point", "coordinates": [ 101.740296614569104, 2.805323229032437 ] } },
{ "type": "Feature", "properties": { "ID": 13, "HIERARKI": "DAERAH", "JENIS": "IPD", "UNIT": "PENGURUSAN", "IPD_INDUK": "IPD Serdang", "NAMA": "IPD Serdang", "ALAMAT": "Jalan Kinrara 6, Bandar Kinrara 6, 47180 Puchong, Selangor", "TELEFON": "03-80742222", "GEO_METHOD": "LOCALITY_CENTROID", "GEO_CONF": "SEDERHANA", "LON_WGS84": 101.717, "LAT_WGS84": 2.9902, "STATUS": "PERLU_SEMAK_LOKASI", "web_hierarchy": "IPD", "web_name": "IPD Serdang", "web_district": "-", "web_address": "Jalan Kinrara 6, Bandar Kinrara 6, 47180 Puchong, Selangor", "web_phone": "03-80742222" }, "geometry": { "type": "Point", "coordinates": [ 101.651342356068952, 3.038451595465803 ] } },
{ "type": "Feature", "properties": { "ID": 14, "HIERARKI": "DAERAH", "JENIS": "IPD", "UNIT": "PENGURUSAN", "IPD_INDUK": "IPD Shah Alam", "NAMA": "IPD Shah Alam", "ALAMAT": "Persiaran Kayangan, Seksyen 9, 40100 Shah Alam, Selangor", "TELEFON": "03-55202222", "GEO_METHOD": "LOCALITY_CENTROID", "GEO_CONF": "SEDERHANA", "LON_WGS84": 101.518, "LAT_WGS84": 3.0732, "STATUS": "PERLU_SEMAK_LOKASI", "web_hierarchy": "IPD", "web_name": "IPD Shah Alam", "web_district": "-", "web_address": "Persiaran Kayangan, Seksyen 9, 40100 Shah Alam, Selangor", "web_phone": "03-55202222" }, "geometry": { "type": "Point", "coordinates": [ 101.520649474201591, 3.085903275138298 ] } },
{ "type": "Feature", "properties": { "ID": 15, "HIERARKI": "DAERAH", "JENIS": "IPD", "UNIT": "PENGURUSAN", "IPD_INDUK": "IPD Subang Jaya", "NAMA": "IPD Subang Jaya", "ALAMAT": "Subang Jaya, Selangor", "TELEFON": null, "GEO_METHOD": "LOCALITY_CENTROID", "GEO_CONF": "SEDERHANA", "LON_WGS84": 101.59, "LAT_WGS84": 3.0559, "STATUS": "PERLU_SEMAK_LOKASI", "web_hierarchy": "IPD", "web_name": "IPD Subang Jaya", "web_district": "-", "web_address": "Subang Jaya, Selangor", "web_phone": "None" }, "geometry": { "type": "Point", "coordinates": [ 101.589004133975919, 3.045463218539274 ] } },
{ "type": "Feature", "properties": { "ID": 16, "HIERARKI": "DAERAH", "JENIS": "IPD", "UNIT": "PENGURUSAN", "IPD_INDUK": "IPD Sungai Buloh", "NAMA": "IPD Sungai Buloh", "ALAMAT": "Jalan Besar, 47000 Sungai Buloh, Selangor", "TELEFON": "03-61561222", "GEO_METHOD": "LOCALITY_CENTROID", "GEO_CONF": "SEDERHANA", "LON_WGS84": 101.583, "LAT_WGS84": 3.2198, "STATUS": "PERLU_SEMAK_LOKASI", "web_hierarchy": "IPD", "web_name": "IPD Sungai Buloh", "web_district": "-", "web_address": "Jalan Besar, 47000 Sungai Buloh, Selangor", "web_phone": "03-61561222" }, "geometry": { "type": "Point", "coordinates": [ 101.567670938045907, 3.194070501973225 ] } },
{ "type": "Feature", "properties": { "ID": 163, "HIERARKI": "KONTINJEN", "JENIS": "JABATAN", "UNIT": "JSPT", "IPD_INDUK": "IPK SELANGOR", "NAMA": "Jabatan Siasatan dan Penguatkuasaan Trafik Kontinjen Selangor", "ALAMAT": "IPK Selangor, Shah Alam", "TELEFON": null, "GEO_METHOD": "IPD_CENTROID", "GEO_CONF": "RENDAH", "LON_WGS84": 101.5199397, "LAT_WGS84": 3.0809393, "STATUS": "PERLU_SEMAK_LOKASI", "web_hierarchy": "IPK", "web_name": "Jabatan Siasatan dan Penguatkuasaan Trafik Kontinjen Selangor", "web_district": "-", "web_address": "IPK Selangor, Shah Alam", "web_phone": "None" }, "geometry": { "type": "Point", "coordinates": [ 101.519939748149582, 3.080939263740599 ] } }
]
}
