{
"type": "FeatureCollection",
"name": "kemudahan_kesihatan_selangor",
"crs": { "type": "name", "properties": { "name": "urn:ogc:def:crs:OGC:1.3:CRS84" } },
"features": [
{ "type": "Feature", "properties": { "FAC_ID": 1, "NAMA": "Hospital Shah Alam", "KATEGORI": "Hospital", "SEKTOR": "Kerajaan", "OPERATOR": "KKM", "DAERAH": "Petaling", "LOKALITI": "Shah Alam", "LATITUDE": 3.0738, "LONGITUDE": 101.52, "SUMBER": "Senarai awam + anggaran lokasi", "SEMAKAN": "PERLU_SEMAKAN", "web_name": "Hospital Shah Alam", "web_category": "Hospital", "web_district": "Petaling", "web_operator": "KKM", "web_sector": "Kerajaan", "web_locality": "Shah Alam", "web_status": "PERLU_SEMAKAN" }, "geometry": { "type": "Point", "coordinates": [ 101.489823033417281, 3.070941359208053 ] } },
{ "type": "Feature", "properties": { "FAC_ID": 2, "NAMA": "Hospital Sungai Buloh", "KATEGORI": "Hospital", "SEKTOR": "Kerajaan", "OPERATOR": "KKM", "DAERAH": "Petaling", "LOKALITI": "Sungai Buloh", "LATITUDE": 3.2195, "LONGITUDE": 101.5837, "SUMBER": "Senarai awam + anggaran lokasi", "SEMAKAN": "PERLU_SEMAKAN", "web_name": "Hospital Sungai Buloh", "web_category": "Hospital", "web_district": "Petaling", "web_operator": "KKM", "web_sector": "Kerajaan", "web_locality": "Sungai Buloh", "web_status": "PERLU_SEMAKAN" }, "geometry": { "type": "Point", "coordinates": [ 101.5837, 3.2195 ] } },
{ "type": "Feature", "properties": { "FAC_ID": 3, "NAMA": "Hospital Sultan Idris Shah Serdang", "KATEGORI": "Hospital", "SEKTOR": "Kerajaan", "OPERATOR": "KKM", "DAERAH": "Petaling", "LOKALITI": "Serdang", "LATITUDE": 2.9764, "LONGITUDE": 101.72, "SUMBER": "Senarai awam + anggaran lokasi", "SEMAKAN": "PERLU_SEMAKAN", "web_name": "Hospital Sultan Idris Shah Serdang", "web_category": "Hospital", "web_district": "Petaling", "web_operator": "KKM", "web_sector": "Kerajaan", "web_locality": "Serdang", "web_status": "PERLU_SEMAKAN" }, "geometry": { "type": "Point", "coordinates": [ 101.720077084587999, 2.9767721164911 ] } },
{ "type": "Feature", "properties": { "FAC_ID": 4, "NAMA": "Hospital Ampang", "KATEGORI": "Hospital", "SEKTOR": "Kerajaan", "OPERATOR": "KKM", "DAERAH": "Hulu Langat", "LOKALITI": "Ampang", "LATITUDE": 3.1479, "LONGITUDE": 101.76, "SUMBER": "Senarai awam + anggaran lokasi", "SEMAKAN": "PERLU_SEMAKAN", "web_name": "Hospital Ampang", "web_category": "Hospital", "web_district": "Hulu Langat", "web_operator": "KKM", "web_sector": "Kerajaan", "web_locality": "Ampang", "web_status": "PERLU_SEMAKAN" }, "geometry": { "type": "Point", "coordinates": [ 101.764010030004457, 3.128231338785563 ] } },
{ "type": "Feature", "properties": { "FAC_ID": 5, "NAMA": "Hospital Tengku Permaisuri Norashikin", "KATEGORI": "Hospital", "SEKTOR": "Kerajaan", "OPERATOR": "KKM", "DAERAH": "Hulu Langat", "LOKALITI": "Kajang", "LATITUDE": 2.9932, "LONGITUDE": 101.79, "SUMBER": "Senarai awam + anggaran lokasi", "SEMAKAN": "PERLU_SEMAKAN", "web_name": "Hospital Tengku Permaisuri Norashikin", "web_category": "Hospital", "web_district": "Hulu Langat", "web_operator": "KKM", "web_sector": "Kerajaan", "web_locality": "Kajang", "web_status": "PERLU_SEMAKAN" }, "geometry": { "type": "Point", "coordinates": [ 101.792489625801565, 2.993912534772702 ] } },
{ "type": "Feature", "properties": { "FAC_ID": 6, "NAMA": "Hospital Cyberjaya", "KATEGORI": "Hospital", "SEKTOR": "Kerajaan", "OPERATOR": "KKM", "DAERAH": "Sepang", "LOKALITI": "Cyberjaya", "LATITUDE": 2.9213, "LONGITUDE": 101.66, "SUMBER": "Senarai awam + anggaran lokasi", "SEMAKAN": "PERLU_SEMAKAN", "web_name": "Hospital Cyberjaya", "web_category": "Hospital", "web_district": "Sepang", "web_operator": "KKM", "web_sector": "Kerajaan", "web_locality": "Cyberjaya", "web_status": "PERLU_SEMAKAN" }, "geometry": { "type": "Point", "coordinates": [ 101.631096747670313, 2.920114062368082 ] } },
{ "type": "Feature", "properties": { "FAC_ID": 7, "NAMA": "Hospital Tengku Ampuan Rahimah", "KATEGORI": "Hospital", "SEKTOR": "Kerajaan", "OPERATOR": "KKM", "DAERAH": "Klang", "LOKALITI": "Klang", "LATITUDE": 3.0223, "LONGITUDE": 101.44, "SUMBER": "Senarai awam + anggaran lokasi", "SEMAKAN": "PERLU_SEMAKAN", "web_name": "Hospital Tengku Ampuan Rahimah", "web_category": "Hospital", "web_district": "Klang", "web_operator": "KKM", "web_sector": "Kerajaan", "web_locality": "Klang", "web_status": "PERLU_SEMAKAN" }, "geometry": { "type": "Point", "coordinates": [ 101.439495753094661, 3.021043729582672 ] } },
{ "type": "Feature", "properties": { "FAC_ID": 8, "NAMA": "Hospital Banting", "KATEGORI": "Hospital", "SEKTOR": "Kerajaan", "OPERATOR": "KKM", "DAERAH": "Kuala Langat", "LOKALITI": "Banting", "LATITUDE": 2.8123, "LONGITUDE": 101.5, "SUMBER": "Senarai awam + anggaran lokasi", "SEMAKAN": "PERLU_SEMAKAN", "web_name": "Hospital Banting", "web_category": "Hospital", "web_district": "Kuala Langat", "web_operator": "KKM", "web_sector": "Kerajaan", "web_locality": "Banting", "web_status": "PERLU_SEMAKAN" }, "geometry": { "type": "Point", "coordinates": [ 101.492390816212335, 2.803358083162275 ] } },
{ "type": "Feature", "properties": { "FAC_ID": 9, "NAMA": "Hospital Tanjung Karang", "KATEGORI": "Hospital", "SEKTOR": "Kerajaan", "OPERATOR": "KKM", "DAERAH": "Kuala Selangor", "LOKALITI": "Tanjung Karang", "LATITUDE": 3.4244, "LONGITUDE": 101.18, "SUMBER": "Senarai awam + anggaran lokasi", "SEMAKAN": "PERLU_SEMAKAN", "web_name": "Hospital Tanjung Karang", "web_category": "Hospital", "web_district": "Kuala Selangor", "web_operator": "KKM", "web_sector": "Kerajaan", "web_locality": "Tanjung Karang", "web_status": "PERLU_SEMAKAN" }, "geometry": { "type": "Point", "coordinates": [ 101.216865663674611, 3.395985270924074 ] } },
{ "type": "Feature", "properties": { "FAC_ID": 10, "NAMA": "Hospital Kuala Kubu Bharu", "KATEGORI": "Hospital", "SEKTOR": "Kerajaan", "OPERATOR": "KKM", "DAERAH": "Hulu Selangor", "LOKALITI": "Kuala Kubu Bharu", "LATITUDE": 3.5652, "LONGITUDE": 101.66, "SUMBER": "Senarai awam + anggaran lokasi", "SEMAKAN": "PERLU_SEMAKAN", "web_name": "Hospital Kuala Kubu Bharu", "web_category": "Hospital", "web_district": "Hulu Selangor", "web_operator": "KKM", "web_sector": "Kerajaan", "web_locality": "Kuala Kubu Bharu", "web_status": "PERLU_SEMAKAN" }, "geometry": { "type": "Point", "coordinates": [ 101.652802806778155, 3.564921779120686 ] } },
{ "type": "Feature", "properties": { "FAC_ID": 11, "NAMA": "Hospital Tengku Ampuan Jemaah", "KATEGORI": "Hospital", "SEKTOR": "Kerajaan", "OPERATOR": "KKM", "DAERAH": "Sabak Bernam", "LOKALITI": "Sabak Bernam", "LATITUDE": 3.768, "LONGITUDE": 100.99, "SUMBER": "Senarai awam + anggaran lokasi", "SEMAKAN": "PERLU_SEMAKAN", "web_name": "Hospital Tengku Ampuan Jemaah", "web_category": "Hospital", "web_district": "Sabak Bernam", "web_operator": "KKM", "web_sector": "Kerajaan", "web_locality": "Sabak Bernam", "web_status": "PERLU_SEMAKAN" }, "geometry": { "type": "Point", "coordinates": [ 100.989434759320659, 3.759173446554876 ] } },
{ "type": "Feature", "properties": { "FAC_ID": 12, "NAMA": "Hospital Selayang", "KATEGORI": "Hospital", "SEKTOR": "Kerajaan", "OPERATOR": "KKM", "DAERAH": "Gombak", "LOKALITI": "Selayang", "LATITUDE": 3.242, "LONGITUDE": 101.647, "SUMBER": "Senarai awam + anggaran lokasi", "SEMAKAN": "PERLU_SEMAKAN", "web_name": "Hospital Selayang", "web_category": "Hospital", "web_district": "Gombak", "web_operator": "KKM", "web_sector": "Kerajaan", "web_locality": "Selayang", "web_status": "PERLU_SEMAKAN" }, "geometry": { "type": "Point", "coordinates": [ 101.647, 3.242 ] } },
{ "type": "Feature", "properties": { "FAC_ID": 13, "NAMA": "Hospital Orang Asli Gombak", "KATEGORI": "Hospital", "SEKTOR": "Kerajaan", "OPERATOR": "KKM", "DAERAH": "Gombak", "LOKALITI": "Gombak", "LATITUDE": 3.325, "LONGITUDE": 101.75, "SUMBER": "Senarai awam + anggaran lokasi", "SEMAKAN": "PERLU_SEMAKAN", "web_name": "Hospital Orang Asli Gombak", "web_category": "Hospital", "web_district": "Gombak", "web_operator": "KKM", "web_sector": "Kerajaan", "web_locality": "Gombak", "web_status": "PERLU_SEMAKAN" }, "geometry": { "type": "Point", "coordinates": [ 101.731187672401362, 3.292740188277782 ] } },
{ "type": "Feature", "properties": { "FAC_ID": 14, "NAMA": "Hospital Al-Sultan Abdullah UiTM", "KATEGORI": "Hospital", "SEKTOR": "Kerajaan", "OPERATOR": "UiTM", "DAERAH": "Kuala Selangor", "LOKALITI": "Puncak Alam", "LATITUDE": 3.227, "LONGITUDE": 101.43, "SUMBER": "Senarai awam + anggaran lokasi", "SEMAKAN": "PERLU_SEMAKAN", "web_name": "Hospital Al-Sultan Abdullah UiTM", "web_category": "Hospital", "web_district": "Kuala Selangor", "web_operator": "UiTM", "web_sector": "Kerajaan", "web_locality": "Puncak Alam", "web_status": "PERLU_SEMAKAN" }, "geometry": { "type": "Point", "coordinates": [ 101.450987685836608, 3.210050486618324 ] } },
{ "type": "Feature", "properties": { "FAC_ID": 15, "NAMA": "Hospital Sultan Abdul Aziz Shah UPM", "KATEGORI": "Hospital", "SEKTOR": "Kerajaan", "OPERATOR": "UPM", "DAERAH": "Petaling", "LOKALITI": "Serdang", "LATITUDE": 2.991, "LONGITUDE": 101.72, "SUMBER": "Senarai awam + anggaran lokasi", "SEMAKAN": "PERLU_SEMAKAN", "web_name": "Hospital Sultan Abdul Aziz Shah UPM", "web_category": "Hospital", "web_district": "Petaling", "web_operator": "UPM", "web_sector": "Kerajaan", "web_locality": "Serdang", "web_status": "PERLU_SEMAKAN" }, "geometry": { "type": "Point", "coordinates": [ 101.718151235495128, 2.980381235946227 ] } },
{ "type": "Feature", "properties": { "FAC_ID": 16, "NAMA": "Sunway Medical Centre", "KATEGORI": "Hospital", "SEKTOR": "Swasta", "OPERATOR": "Swasta", "DAERAH": "Petaling", "LOKALITI": "Bandar Sunway", "LATITUDE": 3.065, "LONGITUDE": 101.61, "SUMBER": "Senarai awam + anggaran lokasi", "SEMAKAN": "PERLU_SEMAKAN", "web_name": "Sunway Medical Centre", "web_category": "Hospital", "web_district": "Petaling", "web_operator": "Swasta", "web_sector": "Swasta", "web_locality": "Bandar Sunway", "web_status": "PERLU_SEMAKAN" }, "geometry": { "type": "Point", "coordinates": [ 101.608571821265897, 3.0662443075324 ] } },
{ "type": "Feature", "properties": { "FAC_ID": 17, "NAMA": "Subang Jaya Medical Centre", "KATEGORI": "Hospital", "SEKTOR": "Swasta", "OPERATOR": "Swasta", "DAERAH": "Petaling", "LOKALITI": "Subang Jaya", "LATITUDE": 3.0795, "LONGITUDE": 101.59, "SUMBER": "Senarai awam + anggaran lokasi", "SEMAKAN": "PERLU_SEMAKAN", "web_name": "Subang Jaya Medical Centre", "web_category": "Hospital", "web_district": "Petaling", "web_operator": "Swasta", "web_sector": "Swasta", "web_locality": "Subang Jaya", "web_status": "PERLU_SEMAKAN" }, "geometry": { "type": "Point", "coordinates": [ 101.593761585443488, 3.079069161770066 ] } },
{ "type": "Feature", "properties": { "FAC_ID": 18, "NAMA": "Thomson Hospital Kota Damansara", "KATEGORI": "Hospital", "SEKTOR": "Swasta", "OPERATOR": "Swasta", "DAERAH": "Petaling", "LOKALITI": "Kota Damansara", "LATITUDE": 3.158, "LONGITUDE": 101.58, "SUMBER": "Senarai awam + anggaran lokasi", "SEMAKAN": "PERLU_SEMAKAN", "web_name": "Thomson Hospital Kota Damansara", "web_category": "Hospital", "web_district": "Petaling", "web_operator": "Swasta", "web_sector": "Swasta", "web_locality": "Kota Damansara", "web_status": "PERLU_SEMAKAN" }, "geometry": { "type": "Point", "coordinates": [ 101.578994534129009, 3.148889540351179 ] } },
{ "type": "Feature", "properties": { "FAC_ID": 19, "NAMA": "Ara Damansara Medical Centre", "KATEGORI": "Hospital", "SEKTOR": "Swasta", "OPERATOR": "Swasta", "DAERAH": "Petaling", "LOKALITI": "Ara Damansara", "LATITUDE": 3.113, "LONGITUDE": 101.58, "SUMBER": "Senarai awam + anggaran lokasi", "SEMAKAN": "PERLU_SEMAKAN", "web_name": "Ara Damansara Medical Centre", "web_category": "Hospital", "web_district": "Petaling", "web_operator": "Swasta", "web_sector": "Swasta", "web_locality": "Ara Damansara", "web_status": "PERLU_SEMAKAN" }, "geometry": { "type": "Point", "coordinates": [ 101.564832950205215, 3.114694042482544 ] } },
{ "type": "Feature", "properties": { "FAC_ID": 20, "NAMA": "Assunta Hospital", "KATEGORI": "Hospital", "SEKTOR": "Swasta", "OPERATOR": "Swasta", "DAERAH": "Petaling", "LOKALITI": "Petaling Jaya", "LATITUDE": 3.094, "LONGITUDE": 101.64, "SUMBER": "Senarai awam + anggaran lokasi", "SEMAKAN": "PERLU_SEMAKAN", "web_name": "Assunta Hospital", "web_category": "Hospital", "web_district": "Petaling", "web_operator": "Swasta", "web_sector": "Swasta", "web_locality": "Petaling Jaya", "web_status": "PERLU_SEMAKAN" }, "geometry": { "type": "Point", "coordinates": [ 101.644947233519702, 3.09310195892783 ] } },
{ "type": "Feature", "properties": { "FAC_ID": 21, "NAMA": "KMI Kelana Jaya Medical Centre", "KATEGORI": "Hospital", "SEKTOR": "Swasta", "OPERATOR": "Swasta", "DAERAH": "Petaling", "LOKALITI": "Kelana Jaya", "LATITUDE": 3.105, "LONGITUDE": 101.6, "SUMBER": "Senarai awam + anggaran lokasi", "SEMAKAN": "PERLU_SEMAKAN", "web_name": "KMI Kelana Jaya Medical Centre", "web_category": "Hospital", "web_district": "Petaling", "web_operator": "Swasta", "web_sector": "Swasta", "web_locality": "Kelana Jaya", "web_status": "PERLU_SEMAKAN" }, "geometry": { "type": "Point", "coordinates": [ 101.595396124029094, 3.10850422355223 ] } },
{ "type": "Feature", "properties": { "FAC_ID": 22, "NAMA": "KPJ Damansara Specialist Hospital", "KATEGORI": "Hospital", "SEKTOR": "Swasta", "OPERATOR": "Swasta", "DAERAH": "Petaling", "LOKALITI": "Damansara Utama", "LATITUDE": 3.133, "LONGITUDE": 101.63, "SUMBER": "Senarai awam + anggaran lokasi", "SEMAKAN": "PERLU_SEMAKAN", "web_name": "KPJ Damansara Specialist Hospital", "web_category": "Hospital", "web_district": "Petaling", "web_operator": "Swasta", "web_sector": "Swasta", "web_locality": "Damansara Utama", "web_status": "PERLU_SEMAKAN" }, "geometry": { "type": "Point", "coordinates": [ 101.62758461989138, 3.137377609891342 ] } },
{ "type": "Feature", "properties": { "FAC_ID": 23, "NAMA": "KPJ Damansara Specialist Hospital 2", "KATEGORI": "Hospital", "SEKTOR": "Swasta", "OPERATOR": "Swasta", "DAERAH": "Petaling", "LOKALITI": "Bukit Lanjan", "LATITUDE": 3.171, "LONGITUDE": 101.61, "SUMBER": "Senarai awam + anggaran lokasi", "SEMAKAN": "PERLU_SEMAKAN", "web_name": "KPJ Damansara Specialist Hospital 2", "web_category": "Hospital", "web_district": "Petaling", "web_operator": "Swasta", "web_sector": "Swasta", "web_locality": "Bukit Lanjan", "web_status": "PERLU_SEMAKAN" }, "geometry": { "type": "Point", "coordinates": [ 101.618322137861426, 3.1710497612961 ] } },
{ "type": "Feature", "properties": { "FAC_ID": 24, "NAMA": "Columbia Asia Hospital Petaling Jaya", "KATEGORI": "Hospital", "SEKTOR": "Swasta", "OPERATOR": "Swasta", "DAERAH": "Petaling", "LOKALITI": "Petaling Jaya", "LATITUDE": 3.096, "LONGITUDE": 101.63, "SUMBER": "Senarai awam + anggaran lokasi", "SEMAKAN": "PERLU_SEMAKAN", "web_name": "Columbia Asia Hospital Petaling Jaya", "web_category": "Hospital", "web_district": "Petaling", "web_operator": "Swasta", "web_sector": "Swasta", "web_locality": "Petaling Jaya", "web_status": "PERLU_SEMAKAN" }, "geometry": { "type": "Point", "coordinates": [ 101.637533310912971, 3.118342564713219 ] } },
{ "type": "Feature", "properties": { "FAC_ID": 25, "NAMA": "Columbia Asia Hospital Puchong", "KATEGORI": "Hospital", "SEKTOR": "Swasta", "OPERATOR": "Swasta", "DAERAH": "Petaling", "LOKALITI": "Puchong", "LATITUDE": 3.033, "LONGITUDE": 101.62, "SUMBER": "Senarai awam + anggaran lokasi", "SEMAKAN": "PERLU_SEMAKAN", "web_name": "Columbia Asia Hospital Puchong", "web_category": "Hospital", "web_district": "Petaling", "web_operator": "Swasta", "web_sector": "Swasta", "web_locality": "Puchong", "web_status": "PERLU_SEMAKAN" }, "geometry": { "type": "Point", "coordinates": [ 101.622277895082391, 3.023803203519978 ] } },
{ "type": "Feature", "properties": { "FAC_ID": 26, "NAMA": "KPMC Puchong Specialist Centre", "KATEGORI": "Hospital", "SEKTOR": "Swasta", "OPERATOR": "Swasta", "DAERAH": "Petaling", "LOKALITI": "Puchong", "LATITUDE": 3.024, "LONGITUDE": 101.62, "SUMBER": "Senarai awam + anggaran lokasi", "SEMAKAN": "PERLU_SEMAKAN", "web_name": "KPMC Puchong Specialist Centre", "web_category": "Hospital", "web_district": "Petaling", "web_operator": "Swasta", "web_sector": "Swasta", "web_locality": "Puchong", "web_status": "PERLU_SEMAKAN" }, "geometry": { "type": "Point", "coordinates": [ 101.615753286555915, 3.024655904878268 ] } },
{ "type": "Feature", "properties": { "FAC_ID": 27, "NAMA": "KPJ Selangor Specialist Hospital", "KATEGORI": "Hospital", "SEKTOR": "Swasta", "OPERATOR": "Swasta", "DAERAH": "Petaling", "LOKALITI": "Shah Alam", "LATITUDE": 3.085, "LONGITUDE": 101.53, "SUMBER": "Senarai awam + anggaran lokasi", "SEMAKAN": "PERLU_SEMAKAN", "web_name": "KPJ Selangor Specialist Hospital", "web_category": "Hospital", "web_district": "Petaling", "web_operator": "Swasta", "web_sector": "Swasta", "web_locality": "Shah Alam", "web_status": "PERLU_SEMAKAN" }, "geometry": { "type": "Point", "coordinates": [ 101.540946373281841, 3.057530391075979 ] } },
{ "type": "Feature", "properties": { "FAC_ID": 28, "NAMA": "Avisena Specialist Hospital", "KATEGORI": "Hospital", "SEKTOR": "Swasta", "OPERATOR": "Swasta", "DAERAH": "Petaling", "LOKALITI": "Shah Alam", "LATITUDE": 3.077, "LONGITUDE": 101.52, "SUMBER": "Senarai awam + anggaran lokasi", "SEMAKAN": "PERLU_SEMAKAN", "web_name": "Avisena Specialist Hospital", "web_category": "Hospital", "web_district": "Petaling", "web_operator": "Swasta", "web_sector": "Swasta", "web_locality": "Shah Alam", "web_status": "PERLU_SEMAKAN" }, "geometry": { "type": "Point", "coordinates": [ 101.523808573767923, 3.07144874100449 ] } },
{ "type": "Feature", "properties": { "FAC_ID": 29, "NAMA": "Avisena Women's & Children's Specialist Hospital", "KATEGORI": "Hospital", "SEKTOR": "Swasta", "OPERATOR": "Swasta", "DAERAH": "Petaling", "LOKALITI": "Shah Alam", "LATITUDE": 3.078, "LONGITUDE": 101.52, "SUMBER": "Senarai awam + anggaran lokasi", "SEMAKAN": "PERLU_SEMAKAN", "web_name": "Avisena Women's & Children's Specialist Hospital", "web_category": "Hospital", "web_district": "Petaling", "web_operator": "Swasta", "web_sector": "Swasta", "web_locality": "Shah Alam", "web_status": "PERLU_SEMAKAN" }, "geometry": { "type": "Point", "coordinates": [ 101.5210468221117, 3.071635305220667 ] } },
{ "type": "Feature", "properties": { "FAC_ID": 30, "NAMA": "SALAM Shah Alam Specialist Hospital", "KATEGORI": "Hospital", "SEKTOR": "Swasta", "OPERATOR": "Swasta", "DAERAH": "Petaling", "LOKALITI": "Shah Alam", "LATITUDE": 3.07, "LONGITUDE": 101.49, "SUMBER": "Senarai awam + anggaran lokasi", "SEMAKAN": "PERLU_SEMAKAN", "web_name": "SALAM Shah Alam Specialist Hospital", "web_category": "Hospital", "web_district": "Petaling", "web_operator": "Swasta", "web_sector": "Swasta", "web_locality": "Shah Alam", "web_status": "PERLU_SEMAKAN" }, "geometry": { "type": "Point", "coordinates": [ 101.535292199526822, 3.049153981715591 ] } },
{ "type": "Feature", "properties": { "FAC_ID": 31, "NAMA": "UMRA Hospital", "KATEGORI": "Hospital", "SEKTOR": "Swasta", "OPERATOR": "Swasta", "DAERAH": "Petaling", "LOKALITI": "Shah Alam", "LATITUDE": 3.072, "LONGITUDE": 101.52, "SUMBER": "Senarai awam + anggaran lokasi", "SEMAKAN": "PERLU_SEMAKAN", "web_name": "UMRA Hospital", "web_category": "Hospital", "web_district": "Petaling", "web_operator": "Swasta", "web_sector": "Swasta", "web_locality": "Shah Alam", "web_status": "PERLU_SEMAKAN" }, "geometry": { "type": "Point", "coordinates": [ 101.53971055487726, 3.081042441747517 ] } },
{ "type": "Feature", "properties": { "FAC_ID": 32, "NAMA": "MSU Medical Centre", "KATEGORI": "Hospital", "SEKTOR": "Swasta", "OPERATOR": "Swasta", "DAERAH": "Petaling", "LOKALITI": "Shah Alam", "LATITUDE": 3.076, "LONGITUDE": 101.55, "SUMBER": "Senarai awam + anggaran lokasi", "SEMAKAN": "PERLU_SEMAKAN", "web_name": "MSU Medical Centre", "web_category": "Hospital", "web_district": "Petaling", "web_operator": "Swasta", "web_sector": "Swasta", "web_locality": "Shah Alam", "web_status": "PERLU_SEMAKAN" }, "geometry": { "type": "Point", "coordinates": [ 101.552809386031527, 3.076765551311822 ] } },
{ "type": "Feature", "properties": { "FAC_ID": 33, "NAMA": "Columbia Asia Hospital Bukit Rimau", "KATEGORI": "Hospital", "SEKTOR": "Swasta", "OPERATOR": "Swasta", "DAERAH": "Klang", "LOKALITI": "Bukit Rimau", "LATITUDE": 3.001, "LONGITUDE": 101.53, "SUMBER": "Senarai awam + anggaran lokasi", "SEMAKAN": "PERLU_SEMAKAN", "web_name": "Columbia Asia Hospital Bukit Rimau", "web_category": "Hospital", "web_district": "Klang", "web_operator": "Swasta", "web_sector": "Swasta", "web_locality": "Bukit Rimau", "web_status": "PERLU_SEMAKAN" }, "geometry": { "type": "Point", "coordinates": [ 101.528822529865963, 2.997052518549916 ] } },
{ "type": "Feature", "properties": { "FAC_ID": 34, "NAMA": "Bukit Tinggi Medical Centre", "KATEGORI": "Hospital", "SEKTOR": "Swasta", "OPERATOR": "Swasta", "DAERAH": "Klang", "LOKALITI": "Bandar Bukit Tinggi", "LATITUDE": 3.01, "LONGITUDE": 101.44, "SUMBER": "Senarai awam + anggaran lokasi", "SEMAKAN": "PERLU_SEMAKAN", "web_name": "Bukit Tinggi Medical Centre", "web_category": "Hospital", "web_district": "Klang", "web_operator": "Swasta", "web_sector": "Swasta", "web_locality": "Bandar Bukit Tinggi", "web_status": "PERLU_SEMAKAN" }, "geometry": { "type": "Point", "coordinates": [ 101.431716275370476, 3.010158141707803 ] } },
{ "type": "Feature", "properties": { "FAC_ID": 35, "NAMA": "Pantai Hospital Klang", "KATEGORI": "Hospital", "SEKTOR": "Swasta", "OPERATOR": "Swasta", "DAERAH": "Klang", "LOKALITI": "Klang", "LATITUDE": 3.006, "LONGITUDE": 101.41, "SUMBER": "Senarai awam + anggaran lokasi", "SEMAKAN": "PERLU_SEMAKAN", "web_name": "Pantai Hospital Klang", "web_category": "Hospital", "web_district": "Klang", "web_operator": "Swasta", "web_sector": "Swasta", "web_locality": "Klang", "web_status": "PERLU_SEMAKAN" }, "geometry": { "type": "Point", "coordinates": [ 101.426299225704142, 3.026457627322936 ] } },
{ "type": "Feature", "properties": { "FAC_ID": 36, "NAMA": "KPJ Klang Specialist Hospital", "KATEGORI": "Hospital", "SEKTOR": "Swasta", "OPERATOR": "Swasta", "DAERAH": "Klang", "LOKALITI": "Klang", "LATITUDE": 3.076, "LONGITUDE": 101.45, "SUMBER": "Senarai awam + anggaran lokasi", "SEMAKAN": "PERLU_SEMAKAN", "web_name": "KPJ Klang Specialist Hospital", "web_category": "Hospital", "web_district": "Klang", "web_operator": "Swasta", "web_sector": "Swasta", "web_locality": "Klang", "web_status": "PERLU_SEMAKAN" }, "geometry": { "type": "Point", "coordinates": [ 101.463071197612521, 3.062282077757419 ] } },
{ "type": "Feature", "properties": { "FAC_ID": 37, "NAMA": "Sri Kota Specialist Medical Centre", "KATEGORI": "Hospital", "SEKTOR": "Swasta", "OPERATOR": "Swasta", "DAERAH": "Klang", "LOKALITI": "Klang", "LATITUDE": 3.044, "LONGITUDE": 101.45, "SUMBER": "Senarai awam + anggaran lokasi", "SEMAKAN": "PERLU_SEMAKAN", "web_name": "Sri Kota Specialist Medical Centre", "web_category": "Hospital", "web_district": "Klang", "web_operator": "Swasta", "web_sector": "Swasta", "web_locality": "Klang", "web_status": "PERLU_SEMAKAN" }, "geometry": { "type": "Point", "coordinates": [ 101.445536721610779, 3.040446958594297 ] } },
{ "type": "Feature", "properties": { "FAC_ID": 38, "NAMA": "Sentosa Specialist Hospital Klang", "KATEGORI": "Hospital", "SEKTOR": "Swasta", "OPERATOR": "Swasta", "DAERAH": "Klang", "LOKALITI": "Klang", "LATITUDE": 3.046, "LONGITUDE": 101.45, "SUMBER": "Senarai awam + anggaran lokasi", "SEMAKAN": "PERLU_SEMAKAN", "web_name": "Sentosa Specialist Hospital Klang", "web_category": "Hospital", "web_district": "Klang", "web_operator": "Swasta", "web_sector": "Swasta", "web_locality": "Klang", "web_status": "PERLU_SEMAKAN" }, "geometry": { "type": "Point", "coordinates": [ 101.482961098083436, 3.005727658721731 ] } },
{ "type": "Feature", "properties": { "FAC_ID": 39, "NAMA": "Hospital Wanita Metro Klang", "KATEGORI": "Hospital", "SEKTOR": "Swasta", "OPERATOR": "Swasta", "DAERAH": "Klang", "LOKALITI": "Klang", "LATITUDE": 3.04, "LONGITUDE": 101.45, "SUMBER": "Senarai awam + anggaran lokasi", "SEMAKAN": "PERLU_SEMAKAN", "web_name": "Hospital Wanita Metro Klang", "web_category": "Hospital", "web_district": "Klang", "web_operator": "Swasta", "web_sector": "Swasta", "web_locality": "Klang", "web_status": "PERLU_SEMAKAN" }, "geometry": { "type": "Point", "coordinates": [ 101.444775060567764, 3.049288760549005 ] } },
{ "type": "Feature", "properties": { "FAC_ID": 40, "NAMA": "KPJ Ampang Puteri Specialist Hospital", "KATEGORI": "Hospital", "SEKTOR": "Swasta", "OPERATOR": "Swasta", "DAERAH": "Hulu Langat", "LOKALITI": "Ampang", "LATITUDE": 3.16, "LONGITUDE": 101.75, "SUMBER": "Senarai awam + anggaran lokasi", "SEMAKAN": "PERLU_SEMAKAN", "web_name": "KPJ Ampang Puteri Specialist Hospital", "web_category": "Hospital", "web_district": "Hulu Langat", "web_operator": "Swasta", "web_sector": "Swasta", "web_locality": "Ampang", "web_status": "PERLU_SEMAKAN" }, "geometry": { "type": "Point", "coordinates": [ 101.751622659459187, 3.160142765810011 ] } },
{ "type": "Feature", "properties": { "FAC_ID": 41, "NAMA": "KPJ Kajang Specialist Hospital", "KATEGORI": "Hospital", "SEKTOR": "Swasta", "OPERATOR": "Swasta", "DAERAH": "Hulu Langat", "LOKALITI": "Kajang", "LATITUDE": 2.999, "LONGITUDE": 101.79, "SUMBER": "Senarai awam + anggaran lokasi", "SEMAKAN": "PERLU_SEMAKAN", "web_name": "KPJ Kajang Specialist Hospital", "web_category": "Hospital", "web_district": "Hulu Langat", "web_operator": "Swasta", "web_sector": "Swasta", "web_locality": "Kajang", "web_status": "PERLU_SEMAKAN" }, "geometry": { "type": "Point", "coordinates": [ 101.785856909007038, 2.99989634673322 ] } },
{ "type": "Feature", "properties": { "FAC_ID": 42, "NAMA": "Kajang Plaza Medical Centre", "KATEGORI": "Hospital", "SEKTOR": "Swasta", "OPERATOR": "Swasta", "DAERAH": "Hulu Langat", "LOKALITI": "Kajang", "LATITUDE": 2.994, "LONGITUDE": 101.79, "SUMBER": "Senarai awam + anggaran lokasi", "SEMAKAN": "PERLU_SEMAKAN", "web_name": "Kajang Plaza Medical Centre", "web_category": "Hospital", "web_district": "Hulu Langat", "web_operator": "Swasta", "web_sector": "Swasta", "web_locality": "Kajang", "web_status": "PERLU_SEMAKAN" }, "geometry": { "type": "Point", "coordinates": [ 101.788297731657963, 2.995762272772271 ] } },
{ "type": "Feature", "properties": { "FAC_ID": 43, "NAMA": "Sungai Long Specialist Hospital", "KATEGORI": "Hospital", "SEKTOR": "Swasta", "OPERATOR": "Swasta", "DAERAH": "Hulu Langat", "LOKALITI": "Bandar Sungai Long", "LATITUDE": 3.038, "LONGITUDE": 101.79, "SUMBER": "Senarai awam + anggaran lokasi", "SEMAKAN": "PERLU_SEMAKAN", "web_name": "Sungai Long Specialist Hospital", "web_category": "Hospital", "web_district": "Hulu Langat", "web_operator": "Swasta", "web_sector": "Swasta", "web_locality": "Bandar Sungai Long", "web_status": "PERLU_SEMAKAN" }, "geometry": { "type": "Point", "coordinates": [ 101.795088452411505, 3.039708576834789 ] } },
{ "type": "Feature", "properties": { "FAC_ID": 44, "NAMA": "Hospital Picaso", "KATEGORI": "Hospital", "SEKTOR": "Swasta", "OPERATOR": "Swasta", "DAERAH": "Petaling", "LOKALITI": "Petaling Jaya", "LATITUDE": 3.118, "LONGITUDE": 101.64, "SUMBER": "Senarai awam + anggaran lokasi", "SEMAKAN": "PERLU_SEMAKAN", "web_name": "Hospital Picaso", "web_category": "Hospital", "web_district": "Petaling", "web_operator": "Swasta", "web_sector": "Swasta", "web_locality": "Petaling Jaya", "web_status": "PERLU_SEMAKAN" }, "geometry": { "type": "Point", "coordinates": [ 101.633509007233997, 3.11307274155463 ] } },
{ "type": "Feature", "properties": { "FAC_ID": 45, "NAMA": "KPJ Rawang Specialist Hospital", "KATEGORI": "Hospital", "SEKTOR": "Swasta", "OPERATOR": "Swasta", "DAERAH": "Gombak", "LOKALITI": "Rawang", "LATITUDE": 3.321, "LONGITUDE": 101.576, "SUMBER": "Senarai awam + anggaran lokasi", "SEMAKAN": "PERLU_SEMAKAN", "web_name": "KPJ Rawang Specialist Hospital", "web_category": "Hospital", "web_district": "Gombak", "web_operator": "Swasta", "web_sector": "Swasta", "web_locality": "Rawang", "web_status": "PERLU_SEMAKAN" }, "geometry": { "type": "Point", "coordinates": [ 101.576, 3.321 ] } },
{ "type": "Feature", "properties": { "FAC_ID": 46, "NAMA": "KPJ Kuala Selangor Specialist Hospital", "KATEGORI": "Hospital", "SEKTOR": "Swasta", "OPERATOR": "Swasta", "DAERAH": "Kuala Selangor", "LOKALITI": "Kuala Selangor", "LATITUDE": 3.339, "LONGITUDE": 101.25, "SUMBER": "Senarai awam + anggaran lokasi", "SEMAKAN": "PERLU_SEMAKAN", "web_name": "KPJ Kuala Selangor Specialist Hospital", "web_category": "Hospital", "web_district": "Kuala Selangor", "web_operator": "Swasta", "web_sector": "Swasta", "web_locality": "Kuala Selangor", "web_status": "PERLU_SEMAKAN" }, "geometry": { "type": "Point", "coordinates": [ 101.257073311507881, 3.34440091371037 ] } },
{ "type": "Feature", "properties": { "FAC_ID": 47, "NAMA": "MAHSA Specialist Hospital", "KATEGORI": "Hospital", "SEKTOR": "Swasta", "OPERATOR": "Swasta", "DAERAH": "Kuala Langat", "LOKALITI": "Bandar Saujana Putra", "LATITUDE": 2.958, "LONGITUDE": 101.58, "SUMBER": "Senarai awam + anggaran lokasi", "SEMAKAN": "PERLU_SEMAKAN", "web_name": "MAHSA Specialist Hospital", "web_category": "Hospital", "web_district": "Kuala Langat", "web_operator": "Swasta", "web_sector": "Swasta", "web_locality": "Bandar Saujana Putra", "web_status": "PERLU_SEMAKAN" }, "geometry": { "type": "Point", "coordinates": [ 101.577000432948367, 2.953042759345653 ] } },
{ "type": "Feature", "properties": { "FAC_ID": 48, "NAMA": "Klinik Kesihatan Shah Alam Seksyen 7", "KATEGORI": "Klinik Kesihatan", "SEKTOR": "Kerajaan", "OPERATOR": "KKM", "DAERAH": "Petaling", "LOKALITI": "Shah Alam", "LATITUDE": 3.0745, "LONGITUDE": 101.52, "SUMBER": "Senarai awam + anggaran lokasi", "SEMAKAN": "PERLU_SEMAKAN", "web_name": "Klinik Kesihatan Shah Alam Seksyen 7", "web_category": "Klinik Kesihatan", "web_district": "Petaling", "web_operator": "KKM", "web_sector": "Kerajaan", "web_locality": "Shah Alam", "web_status": "PERLU_SEMAKAN" }, "geometry": { "type": "Point", "coordinates": [ 101.490722708484014, 3.072435628594214 ] } },
{ "type": "Feature", "properties": { "FAC_ID": 49, "NAMA": "Klinik Kesihatan Shah Alam Seksyen 19", "KATEGORI": "Klinik Kesihatan", "SEKTOR": "Kerajaan", "OPERATOR": "KKM", "DAERAH": "Petaling", "LOKALITI": "Shah Alam", "LATITUDE": 3.05, "LONGITUDE": 101.53, "SUMBER": "Senarai awam + anggaran lokasi", "SEMAKAN": "PERLU_SEMAKAN", "web_name": "Klinik Kesihatan Shah Alam Seksyen 19", "web_category": "Klinik Kesihatan", "web_district": "Petaling", "web_operator": "KKM", "web_sector": "Kerajaan", "web_locality": "Shah Alam", "web_status": "PERLU_SEMAKAN" }, "geometry": { "type": "Point", "coordinates": [ 101.533111520023454, 3.049937639905121 ] } },
{ "type": "Feature", "properties": { "FAC_ID": 50, "NAMA": "Klinik Kesihatan Kelana Jaya", "KATEGORI": "Klinik Kesihatan", "SEKTOR": "Kerajaan", "OPERATOR": "KKM", "DAERAH": "Petaling", "LOKALITI": "Kelana Jaya", "LATITUDE": 3.105, "LONGITUDE": 101.6, "SUMBER": "Senarai awam + anggaran lokasi", "SEMAKAN": "PERLU_SEMAKAN", "web_name": "Klinik Kesihatan Kelana Jaya", "web_category": "Klinik Kesihatan", "web_district": "Petaling", "web_operator": "KKM", "web_sector": "Kerajaan", "web_locality": "Kelana Jaya", "web_status": "PERLU_SEMAKAN" }, "geometry": { "type": "Point", "coordinates": [ 101.600649610721277, 3.099093686166226 ] } },
{ "type": "Feature", "properties": { "FAC_ID": 51, "NAMA": "Klinik Kesihatan Taman Medan", "KATEGORI": "Klinik Kesihatan", "SEKTOR": "Kerajaan", "OPERATOR": "KKM", "DAERAH": "Petaling", "LOKALITI": "Petaling Jaya", "LATITUDE": 3.081, "LONGITUDE": 101.64, "SUMBER": "Senarai awam + anggaran lokasi", "SEMAKAN": "PERLU_SEMAKAN", "web_name": "Klinik Kesihatan Taman Medan", "web_category": "Klinik Kesihatan", "web_district": "Petaling", "web_operator": "KKM", "web_sector": "Kerajaan", "web_locality": "Petaling Jaya", "web_status": "PERLU_SEMAKAN" }, "geometry": { "type": "Point", "coordinates": [ 101.634604035434293, 3.079081601691158 ] } },
{ "type": "Feature", "properties": { "FAC_ID": 52, "NAMA": "Klinik Kesihatan Puchong Batu 14", "KATEGORI": "Klinik Kesihatan", "SEKTOR": "Kerajaan", "OPERATOR": "KKM", "DAERAH": "Petaling", "LOKALITI": "Puchong", "LATITUDE": 3.017, "LONGITUDE": 101.62, "SUMBER": "Senarai awam + anggaran lokasi", "SEMAKAN": "PERLU_SEMAKAN", "web_name": "Klinik Kesihatan Puchong Batu 14", "web_category": "Klinik Kesihatan", "web_district": "Petaling", "web_operator": "KKM", "web_sector": "Kerajaan", "web_locality": "Puchong", "web_status": "PERLU_SEMAKAN" }, "geometry": { "type": "Point", "coordinates": [ 101.619258872389068, 2.993661277413875 ] } },
{ "type": "Feature", "properties": { "FAC_ID": 53, "NAMA": "Klinik Kesihatan Sungai Buloh", "KATEGORI": "Klinik Kesihatan", "SEKTOR": "Kerajaan", "OPERATOR": "KKM", "DAERAH": "Petaling", "LOKALITI": "Sungai Buloh", "LATITUDE": 3.207, "LONGITUDE": 101.58, "SUMBER": "Senarai awam + anggaran lokasi", "SEMAKAN": "PERLU_SEMAKAN", "web_name": "Klinik Kesihatan Sungai Buloh", "web_category": "Klinik Kesihatan", "web_district": "Petaling", "web_operator": "KKM", "web_sector": "Kerajaan", "web_locality": "Sungai Buloh", "web_status": "PERLU_SEMAKAN" }, "geometry": { "type": "Point", "coordinates": [ 101.577222296130813, 3.219470081422923 ] } },
{ "type": "Feature", "properties": { "FAC_ID": 54, "NAMA": "Klinik Kesihatan Kajang", "KATEGORI": "Klinik Kesihatan", "SEKTOR": "Kerajaan", "OPERATOR": "KKM", "DAERAH": "Hulu Langat", "LOKALITI": "Kajang", "LATITUDE": 2.996, "LONGITUDE": 101.79, "SUMBER": "Senarai awam + anggaran lokasi", "SEMAKAN": "PERLU_SEMAKAN", "web_name": "Klinik Kesihatan Kajang", "web_category": "Klinik Kesihatan", "web_district": "Hulu Langat", "web_operator": "KKM", "web_sector": "Kerajaan", "web_locality": "Kajang", "web_status": "PERLU_SEMAKAN" }, "geometry": { "type": "Point", "coordinates": [ 101.825448104735017, 2.978699524511628 ] } },
{ "type": "Feature", "properties": { "FAC_ID": 55, "NAMA": "Klinik Kesihatan Bandar Baru Bangi", "KATEGORI": "Klinik Kesihatan", "SEKTOR": "Kerajaan", "OPERATOR": "KKM", "DAERAH": "Hulu Langat", "LOKALITI": "Bandar Baru Bangi", "LATITUDE": 2.96, "LONGITUDE": 101.76, "SUMBER": "Senarai awam + anggaran lokasi", "SEMAKAN": "PERLU_SEMAKAN", "web_name": "Klinik Kesihatan Bandar Baru Bangi", "web_category": "Klinik Kesihatan", "web_district": "Hulu Langat", "web_operator": "KKM", "web_sector": "Kerajaan", "web_locality": "Bandar Baru Bangi", "web_status": "PERLU_SEMAKAN" }, "geometry": { "type": "Point", "coordinates": [ 101.773779153082103, 2.935419900257264 ] } },
{ "type": "Feature", "properties": { "FAC_ID": 56, "NAMA": "Klinik Kesihatan Beranang", "KATEGORI": "Klinik Kesihatan", "SEKTOR": "Kerajaan", "OPERATOR": "KKM", "DAERAH": "Hulu Langat", "LOKALITI": "Beranang", "LATITUDE": 2.873, "LONGITUDE": 101.87, "SUMBER": "Senarai awam + anggaran lokasi", "SEMAKAN": "PERLU_SEMAKAN", "web_name": "Klinik Kesihatan Beranang", "web_category": "Klinik Kesihatan", "web_district": "Hulu Langat", "web_operator": "KKM", "web_sector": "Kerajaan", "web_locality": "Beranang", "web_status": "PERLU_SEMAKAN" }, "geometry": { "type": "Point", "coordinates": [ 101.871302397235169, 2.887981897767696 ] } },
{ "type": "Feature", "properties": { "FAC_ID": 57, "NAMA": "Klinik Kesihatan Semenyih", "KATEGORI": "Klinik Kesihatan", "SEKTOR": "Kerajaan", "OPERATOR": "KKM", "DAERAH": "Hulu Langat", "LOKALITI": "Semenyih", "LATITUDE": 2.951, "LONGITUDE": 101.85, "SUMBER": "Senarai awam + anggaran lokasi", "SEMAKAN": "PERLU_SEMAKAN", "web_name": "Klinik Kesihatan Semenyih", "web_category": "Klinik Kesihatan", "web_district": "Hulu Langat", "web_operator": "KKM", "web_sector": "Kerajaan", "web_locality": "Semenyih", "web_status": "PERLU_SEMAKAN" }, "geometry": { "type": "Point", "coordinates": [ 101.840308532573005, 2.951899874994229 ] } },
{ "type": "Feature", "properties": { "FAC_ID": 58, "NAMA": "Klinik Kesihatan Ampang", "KATEGORI": "Klinik Kesihatan", "SEKTOR": "Kerajaan", "OPERATOR": "KKM", "DAERAH": "Hulu Langat", "LOKALITI": "Ampang", "LATITUDE": 3.149, "LONGITUDE": 101.76, "SUMBER": "Senarai awam + anggaran lokasi", "SEMAKAN": "PERLU_SEMAKAN", "web_name": "Klinik Kesihatan Ampang", "web_category": "Klinik Kesihatan", "web_district": "Hulu Langat", "web_operator": "KKM", "web_sector": "Kerajaan", "web_locality": "Ampang", "web_status": "PERLU_SEMAKAN" }, "geometry": { "type": "Point", "coordinates": [ 101.761357998899697, 3.145251465357484 ] } },
{ "type": "Feature", "properties": { "FAC_ID": 59, "NAMA": "Klinik Kesihatan Pandamaran", "KATEGORI": "Klinik Kesihatan", "SEKTOR": "Kerajaan", "OPERATOR": "KKM", "DAERAH": "Klang", "LOKALITI": "Pandamaran", "LATITUDE": 3.002, "LONGITUDE": 101.42, "SUMBER": "Senarai awam + anggaran lokasi", "SEMAKAN": "PERLU_SEMAKAN", "web_name": "Klinik Kesihatan Pandamaran", "web_category": "Klinik Kesihatan", "web_district": "Klang", "web_operator": "KKM", "web_sector": "Kerajaan", "web_locality": "Pandamaran", "web_status": "PERLU_SEMAKAN" }, "geometry": { "type": "Point", "coordinates": [ 101.412801405538417, 3.014332469137101 ] } },
{ "type": "Feature", "properties": { "FAC_ID": 60, "NAMA": "Klinik Kesihatan Pelabuhan Klang", "KATEGORI": "Klinik Kesihatan", "SEKTOR": "Kerajaan", "OPERATOR": "KKM", "DAERAH": "Klang", "LOKALITI": "Pelabuhan Klang", "LATITUDE": 3.0, "LONGITUDE": 101.397, "SUMBER": "Senarai awam + anggaran lokasi", "SEMAKAN": "PERLU_SEMAKAN", "web_name": "Klinik Kesihatan Pelabuhan Klang", "web_category": "Klinik Kesihatan", "web_district": "Klang", "web_operator": "KKM", "web_sector": "Kerajaan", "web_locality": "Pelabuhan Klang", "web_status": "PERLU_SEMAKAN" }, "geometry": { "type": "Point", "coordinates": [ 101.397, 3.0 ] } },
{ "type": "Feature", "properties": { "FAC_ID": 61, "NAMA": "Klinik Kesihatan Kapar", "KATEGORI": "Klinik Kesihatan", "SEKTOR": "Kerajaan", "OPERATOR": "KKM", "DAERAH": "Klang", "LOKALITI": "Kapar", "LATITUDE": 3.137, "LONGITUDE": 101.38, "SUMBER": "Senarai awam + anggaran lokasi", "SEMAKAN": "PERLU_SEMAKAN", "web_name": "Klinik Kesihatan Kapar", "web_category": "Klinik Kesihatan", "web_district": "Klang", "web_operator": "KKM", "web_sector": "Kerajaan", "web_locality": "Kapar", "web_status": "PERLU_SEMAKAN" }, "geometry": { "type": "Point", "coordinates": [ 101.372281511451433, 3.139629479455614 ] } },
{ "type": "Feature", "properties": { "FAC_ID": 62, "NAMA": "Klinik Kesihatan Meru", "KATEGORI": "Klinik Kesihatan", "SEKTOR": "Kerajaan", "OPERATOR": "KKM", "DAERAH": "Klang", "LOKALITI": "Meru", "LATITUDE": 3.141, "LONGITUDE": 101.44, "SUMBER": "Senarai awam + anggaran lokasi", "SEMAKAN": "PERLU_SEMAKAN", "web_name": "Klinik Kesihatan Meru", "web_category": "Klinik Kesihatan", "web_district": "Klang", "web_operator": "KKM", "web_sector": "Kerajaan", "web_locality": "Meru", "web_status": "PERLU_SEMAKAN" }, "geometry": { "type": "Point", "coordinates": [ 101.441137811581754, 3.136653308283908 ] } },
{ "type": "Feature", "properties": { "FAC_ID": 63, "NAMA": "Klinik Kesihatan Bukit Kuda", "KATEGORI": "Klinik Kesihatan", "SEKTOR": "Kerajaan", "OPERATOR": "KKM", "DAERAH": "Klang", "LOKALITI": "Klang", "LATITUDE": 3.058, "LONGITUDE": 101.46, "SUMBER": "Senarai awam + anggaran lokasi", "SEMAKAN": "PERLU_SEMAKAN", "web_name": "Klinik Kesihatan Bukit Kuda", "web_category": "Klinik Kesihatan", "web_district": "Klang", "web_operator": "KKM", "web_sector": "Kerajaan", "web_locality": "Klang", "web_status": "PERLU_SEMAKAN" }, "geometry": { "type": "Point", "coordinates": [ 101.458262538333997, 3.050656646382418 ] } },
{ "type": "Feature", "properties": { "FAC_ID": 64, "NAMA": "Klinik Kesihatan Bandar Botanic", "KATEGORI": "Klinik Kesihatan", "SEKTOR": "Kerajaan", "OPERATOR": "KKM", "DAERAH": "Klang", "LOKALITI": "Bandar Botanic", "LATITUDE": 2.999, "LONGITUDE": 101.44, "SUMBER": "Senarai awam + anggaran lokasi", "SEMAKAN": "PERLU_SEMAKAN", "web_name": "Klinik Kesihatan Bandar Botanic", "web_category": "Klinik Kesihatan", "web_district": "Klang", "web_operator": "KKM", "web_sector": "Kerajaan", "web_locality": "Bandar Botanic", "web_status": "PERLU_SEMAKAN" }, "geometry": { "type": "Point", "coordinates": [ 101.446421194152421, 2.989542535142744 ] } },
{ "type": "Feature", "properties": { "FAC_ID": 66, "NAMA": "Klinik Kesihatan Telok Datok", "KATEGORI": "Klinik Kesihatan", "SEKTOR": "Kerajaan", "OPERATOR": "KKM", "DAERAH": "Kuala Langat", "LOKALITI": "Banting", "LATITUDE": 2.817, "LONGITUDE": 101.5, "SUMBER": "Senarai awam + anggaran lokasi", "SEMAKAN": "PERLU_SEMAKAN", "web_name": "Klinik Kesihatan Telok Datok", "web_category": "Klinik Kesihatan", "web_district": "Kuala Langat", "web_operator": "KKM", "web_sector": "Kerajaan", "web_locality": "Banting", "web_status": "PERLU_SEMAKAN" }, "geometry": { "type": "Point", "coordinates": [ 101.517255588350835, 2.81949774108915 ] } },
{ "type": "Feature", "properties": { "FAC_ID": 67, "NAMA": "Klinik Kesihatan Jenjarom", "KATEGORI": "Klinik Kesihatan", "SEKTOR": "Kerajaan", "OPERATOR": "KKM", "DAERAH": "Kuala Langat", "LOKALITI": "Jenjarom", "LATITUDE": 2.88, "LONGITUDE": 101.5, "SUMBER": "Senarai awam + anggaran lokasi", "SEMAKAN": "PERLU_SEMAKAN", "web_name": "Klinik Kesihatan Jenjarom", "web_category": "Klinik Kesihatan", "web_district": "Kuala Langat", "web_operator": "KKM", "web_sector": "Kerajaan", "web_locality": "Jenjarom", "web_status": "PERLU_SEMAKAN" }, "geometry": { "type": "Point", "coordinates": [ 101.500341536552924, 2.878248279361578 ] } },
{ "type": "Feature", "properties": { "FAC_ID": 68, "NAMA": "Klinik Kesihatan Sepang", "KATEGORI": "Klinik Kesihatan", "SEKTOR": "Kerajaan", "OPERATOR": "KKM", "DAERAH": "Sepang", "LOKALITI": "Sepang", "LATITUDE": 2.691, "LONGITUDE": 101.75, "SUMBER": "Senarai awam + anggaran lokasi", "SEMAKAN": "PERLU_SEMAKAN", "web_name": "Klinik Kesihatan Sepang", "web_category": "Klinik Kesihatan", "web_district": "Sepang", "web_operator": "KKM", "web_sector": "Kerajaan", "web_locality": "Sepang", "web_status": "PERLU_SEMAKAN" }, "geometry": { "type": "Point", "coordinates": [ 101.749999514636968, 2.68934902666423 ] } },
{ "type": "Feature", "properties": { "FAC_ID": 69, "NAMA": "Klinik Kesihatan Dengkil", "KATEGORI": "Klinik Kesihatan", "SEKTOR": "Kerajaan", "OPERATOR": "KKM", "DAERAH": "Sepang", "LOKALITI": "Dengkil", "LATITUDE": 2.86, "LONGITUDE": 101.68, "SUMBER": "Senarai awam + anggaran lokasi", "SEMAKAN": "PERLU_SEMAKAN", "web_name": "Klinik Kesihatan Dengkil", "web_category": "Klinik Kesihatan", "web_district": "Sepang", "web_operator": "KKM", "web_sector": "Kerajaan", "web_locality": "Dengkil", "web_status": "PERLU_SEMAKAN" }, "geometry": { "type": "Point", "coordinates": [ 101.681804307747498, 2.859822732527265 ] } },
{ "type": "Feature", "properties": { "FAC_ID": 70, "NAMA": "Klinik Kesihatan Salak", "KATEGORI": "Klinik Kesihatan", "SEKTOR": "Kerajaan", "OPERATOR": "KKM", "DAERAH": "Sepang", "LOKALITI": "Salak", "LATITUDE": 2.744, "LONGITUDE": 101.74, "SUMBER": "Senarai awam + anggaran lokasi", "SEMAKAN": "PERLU_SEMAKAN", "web_name": "Klinik Kesihatan Salak", "web_category": "Klinik Kesihatan", "web_district": "Sepang", "web_operator": "KKM", "web_sector": "Kerajaan", "web_locality": "Salak", "web_status": "PERLU_SEMAKAN" }, "geometry": { "type": "Point", "coordinates": [ 101.749214705468745, 2.789478976800901 ] } },
{ "type": "Feature", "properties": { "FAC_ID": 71, "NAMA": "Klinik Kesihatan Kuala Selangor", "KATEGORI": "Klinik Kesihatan", "SEKTOR": "Kerajaan", "OPERATOR": "KKM", "DAERAH": "Kuala Selangor", "LOKALITI": "Kuala Selangor", "LATITUDE": 3.341, "LONGITUDE": 101.25, "SUMBER": "Senarai awam + anggaran lokasi", "SEMAKAN": "PERLU_SEMAKAN", "web_name": "Klinik Kesihatan Kuala Selangor", "web_category": "Klinik Kesihatan", "web_district": "Kuala Selangor", "web_operator": "KKM", "web_sector": "Kerajaan", "web_locality": "Kuala Selangor", "web_status": "PERLU_SEMAKAN" }, "geometry": { "type": "Point", "coordinates": [ 101.249796783849547, 3.336777306532504 ] } },
{ "type": "Feature", "properties": { "FAC_ID": 72, "NAMA": "Klinik Kesihatan Tanjung Karang", "KATEGORI": "Klinik Kesihatan", "SEKTOR": "Kerajaan", "OPERATOR": "KKM", "DAERAH": "Kuala Selangor", "LOKALITI": "Tanjung Karang", "LATITUDE": 3.425, "LONGITUDE": 101.18, "SUMBER": "Senarai awam + anggaran lokasi", "SEMAKAN": "PERLU_SEMAKAN", "web_name": "Klinik Kesihatan Tanjung Karang", "web_category": "Klinik Kesihatan", "web_district": "Kuala Selangor", "web_operator": "KKM", "web_sector": "Kerajaan", "web_locality": "Tanjung Karang", "web_status": "PERLU_SEMAKAN" }, "geometry": { "type": "Point", "coordinates": [ 101.179178080633392, 3.425602331058552 ] } },
{ "type": "Feature", "properties": { "FAC_ID": 73, "NAMA": "Klinik Kesihatan Ijok", "KATEGORI": "Klinik Kesihatan", "SEKTOR": "Kerajaan", "OPERATOR": "KKM", "DAERAH": "Kuala Selangor", "LOKALITI": "Ijok", "LATITUDE": 3.318, "LONGITUDE": 101.397, "SUMBER": "Senarai awam + anggaran lokasi", "SEMAKAN": "PERLU_SEMAKAN", "web_name": "Klinik Kesihatan Ijok", "web_category": "Klinik Kesihatan", "web_district": "Kuala Selangor", "web_operator": "KKM", "web_sector": "Kerajaan", "web_locality": "Ijok", "web_status": "PERLU_SEMAKAN" }, "geometry": { "type": "Point", "coordinates": [ 101.397, 3.318 ] } },
{ "type": "Feature", "properties": { "FAC_ID": 74, "NAMA": "Klinik Kesihatan Bestari Jaya", "KATEGORI": "Klinik Kesihatan", "SEKTOR": "Kerajaan", "OPERATOR": "KKM", "DAERAH": "Kuala Selangor", "LOKALITI": "Bestari Jaya", "LATITUDE": 3.381, "LONGITUDE": 101.417, "SUMBER": "Senarai awam + anggaran lokasi", "SEMAKAN": "PERLU_SEMAKAN", "web_name": "Klinik Kesihatan Bestari Jaya", "web_category": "Klinik Kesihatan", "web_district": "Kuala Selangor", "web_operator": "KKM", "web_sector": "Kerajaan", "web_locality": "Bestari Jaya", "web_status": "PERLU_SEMAKAN" }, "geometry": { "type": "Point", "coordinates": [ 101.417, 3.381 ] } },
{ "type": "Feature", "properties": { "FAC_ID": 75, "NAMA": "Klinik Kesihatan Kuala Kubu Bharu", "KATEGORI": "Klinik Kesihatan", "SEKTOR": "Kerajaan", "OPERATOR": "KKM", "DAERAH": "Hulu Selangor", "LOKALITI": "Kuala Kubu Bharu", "LATITUDE": 3.566, "LONGITUDE": 101.66, "SUMBER": "Senarai awam + anggaran lokasi", "SEMAKAN": "PERLU_SEMAKAN", "web_name": "Klinik Kesihatan Kuala Kubu Bharu", "web_category": "Klinik Kesihatan", "web_district": "Hulu Selangor", "web_operator": "KKM", "web_sector": "Kerajaan", "web_locality": "Kuala Kubu Bharu", "web_status": "PERLU_SEMAKAN" }, "geometry": { "type": "Point", "coordinates": [ 101.661066886478181, 3.567858892678793 ] } },
{ "type": "Feature", "properties": { "FAC_ID": 76, "NAMA": "Klinik Kesihatan Rawang", "KATEGORI": "Klinik Kesihatan", "SEKTOR": "Kerajaan", "OPERATOR": "KKM", "DAERAH": "Gombak", "LOKALITI": "Rawang", "LATITUDE": 3.321, "LONGITUDE": 101.575, "SUMBER": "Senarai awam + anggaran lokasi", "SEMAKAN": "PERLU_SEMAKAN", "web_name": "Klinik Kesihatan Rawang", "web_category": "Klinik Kesihatan", "web_district": "Gombak", "web_operator": "KKM", "web_sector": "Kerajaan", "web_locality": "Rawang", "web_status": "PERLU_SEMAKAN" }, "geometry": { "type": "Point", "coordinates": [ 101.575, 3.321 ] } },
{ "type": "Feature", "properties": { "FAC_ID": 77, "NAMA": "Klinik Kesihatan Selayang Baru", "KATEGORI": "Klinik Kesihatan", "SEKTOR": "Kerajaan", "OPERATOR": "KKM", "DAERAH": "Gombak", "LOKALITI": "Selayang", "LATITUDE": 3.253, "LONGITUDE": 101.653, "SUMBER": "Senarai awam + anggaran lokasi", "SEMAKAN": "PERLU_SEMAKAN", "web_name": "Klinik Kesihatan Selayang Baru", "web_category": "Klinik Kesihatan", "web_district": "Gombak", "web_operator": "KKM", "web_sector": "Kerajaan", "web_locality": "Selayang", "web_status": "PERLU_SEMAKAN" }, "geometry": { "type": "Point", "coordinates": [ 101.653, 3.253 ] } },
{ "type": "Feature", "properties": { "FAC_ID": 78, "NAMA": "Klinik Kesihatan Kuang", "KATEGORI": "Klinik Kesihatan", "SEKTOR": "Kerajaan", "OPERATOR": "KKM", "DAERAH": "Gombak", "LOKALITI": "Kuang", "LATITUDE": 3.259, "LONGITUDE": 101.555, "SUMBER": "Senarai awam + anggaran lokasi", "SEMAKAN": "PERLU_SEMAKAN", "web_name": "Klinik Kesihatan Kuang", "web_category": "Klinik Kesihatan", "web_district": "Gombak", "web_operator": "KKM", "web_sector": "Kerajaan", "web_locality": "Kuang", "web_status": "PERLU_SEMAKAN" }, "geometry": { "type": "Point", "coordinates": [ 101.555, 3.259 ] } },
{ "type": "Feature", "properties": { "FAC_ID": 79, "NAMA": "Klinik Kesihatan Sabak Bernam", "KATEGORI": "Klinik Kesihatan", "SEKTOR": "Kerajaan", "OPERATOR": "KKM", "DAERAH": "Sabak Bernam", "LOKALITI": "Sabak Bernam", "LATITUDE": 3.769, "LONGITUDE": 100.99, "SUMBER": "Senarai awam + anggaran lokasi", "SEMAKAN": "PERLU_SEMAKAN", "web_name": "Klinik Kesihatan Sabak Bernam", "web_category": "Klinik Kesihatan", "web_district": "Sabak Bernam", "web_operator": "KKM", "web_sector": "Kerajaan", "web_locality": "Sabak Bernam", "web_status": "PERLU_SEMAKAN" }, "geometry": { "type": "Point", "coordinates": [ 100.983809317503457, 3.766885026271909 ] } },
{ "type": "Feature", "properties": { "FAC_ID": 80, "NAMA": "Klinik Kesihatan Sungai Besar", "KATEGORI": "Klinik Kesihatan", "SEKTOR": "Kerajaan", "OPERATOR": "KKM", "DAERAH": "Sabak Bernam", "LOKALITI": "Sungai Besar", "LATITUDE": 3.674, "LONGITUDE": 100.99, "SUMBER": "Senarai awam + anggaran lokasi", "SEMAKAN": "PERLU_SEMAKAN", "web_name": "Klinik Kesihatan Sungai Besar", "web_category": "Klinik Kesihatan", "web_district": "Sabak Bernam", "web_operator": "KKM", "web_sector": "Kerajaan", "web_locality": "Sungai Besar", "web_status": "PERLU_SEMAKAN" }, "geometry": { "type": "Point", "coordinates": [ 100.988876030668109, 3.675923260894351 ] } },
{ "type": "Feature", "properties": { "FAC_ID": 81, "NAMA": "Klinik Kesihatan Sekinchan", "KATEGORI": "Klinik Kesihatan", "SEKTOR": "Kerajaan", "OPERATOR": "KKM", "DAERAH": "Sabak Bernam", "LOKALITI": "Sekinchan", "LATITUDE": 3.506, "LONGITUDE": 101.1, "SUMBER": "Senarai awam + anggaran lokasi", "SEMAKAN": "PERLU_SEMAKAN", "web_name": "Klinik Kesihatan Sekinchan", "web_category": "Klinik Kesihatan", "web_district": "Sabak Bernam", "web_operator": "KKM", "web_sector": "Kerajaan", "web_locality": "Sekinchan", "web_status": "PERLU_SEMAKAN" }, "geometry": { "type": "Point", "coordinates": [ 101.102632195627862, 3.509895737507295 ] } },
{ "type": "Feature", "properties": { "FAC_ID": 82, "NAMA": "Klinik Kesihatan Ibu dan Anak Shah Alam", "KATEGORI": "Klinik Ibu dan Anak", "SEKTOR": "Kerajaan", "OPERATOR": "KKM", "DAERAH": "Petaling", "LOKALITI": "Shah Alam", "LATITUDE": 3.074, "LONGITUDE": 101.52, "SUMBER": "Senarai awam + anggaran lokasi", "SEMAKAN": "PERLU_SEMAKAN", "web_name": "Klinik Kesihatan Ibu dan Anak Shah Alam", "web_category": "Klinik Ibu dan Anak", "web_district": "Petaling", "web_operator": "KKM", "web_sector": "Kerajaan", "web_locality": "Shah Alam", "web_status": "PERLU_SEMAKAN" }, "geometry": { "type": "Point", "coordinates": [ 101.490694496909853, 3.072165455853575 ] } },
{ "type": "Feature", "properties": { "FAC_ID": 83, "NAMA": "Klinik Kesihatan Ibu dan Anak Klang", "KATEGORI": "Klinik Ibu dan Anak", "SEKTOR": "Kerajaan", "OPERATOR": "KKM", "DAERAH": "Klang", "LOKALITI": "Klang", "LATITUDE": 3.044, "LONGITUDE": 101.45, "SUMBER": "Senarai awam + anggaran lokasi", "SEMAKAN": "PERLU_SEMAKAN", "web_name": "Klinik Kesihatan Ibu dan Anak Klang", "web_category": "Klinik Ibu dan Anak", "web_district": "Klang", "web_operator": "KKM", "web_sector": "Kerajaan", "web_locality": "Klang", "web_status": "PERLU_SEMAKAN" }, "geometry": { "type": "Point", "coordinates": [ 101.446571575721592, 3.037491805920636 ] } },
{ "type": "Feature", "properties": { "FAC_ID": 84, "NAMA": "Klinik Kesihatan Ibu dan Anak Kajang", "KATEGORI": "Klinik Ibu dan Anak", "SEKTOR": "Kerajaan", "OPERATOR": "KKM", "DAERAH": "Hulu Langat", "LOKALITI": "Kajang", "LATITUDE": 2.995, "LONGITUDE": 101.79, "SUMBER": "Senarai awam + anggaran lokasi", "SEMAKAN": "PERLU_SEMAKAN", "web_name": "Klinik Kesihatan Ibu dan Anak Kajang", "web_category": "Klinik Ibu dan Anak", "web_district": "Hulu Langat", "web_operator": "KKM", "web_sector": "Kerajaan", "web_locality": "Kajang", "web_status": "PERLU_SEMAKAN" }, "geometry": { "type": "Point", "coordinates": [ 101.798447825048612, 2.992908474776129 ] } },
{ "type": "Feature", "properties": { "FAC_ID": 85, "NAMA": "Klinik Kesihatan Ibu dan Anak Ampang", "KATEGORI": "Klinik Ibu dan Anak", "SEKTOR": "Kerajaan", "OPERATOR": "KKM", "DAERAH": "Hulu Langat", "LOKALITI": "Ampang", "LATITUDE": 3.15, "LONGITUDE": 101.76, "SUMBER": "Senarai awam + anggaran lokasi", "SEMAKAN": "PERLU_SEMAKAN", "web_name": "Klinik Kesihatan Ibu dan Anak Ampang", "web_category": "Klinik Ibu dan Anak", "web_district": "Hulu Langat", "web_operator": "KKM", "web_sector": "Kerajaan", "web_locality": "Ampang", "web_status": "PERLU_SEMAKAN" }, "geometry": { "type": "Point", "coordinates": [ 101.761418856697844, 3.145562461210571 ] } },
{ "type": "Feature", "properties": { "FAC_ID": 86, "NAMA": "Klinik Desa Sungai Sireh", "KATEGORI": "Klinik Desa", "SEKTOR": "Kerajaan", "OPERATOR": "KKM", "DAERAH": "Kuala Selangor", "LOKALITI": "Sungai Sireh", "LATITUDE": 3.495, "LONGITUDE": 101.16, "SUMBER": "Senarai awam + anggaran lokasi", "SEMAKAN": "PERLU_SEMAKAN", "web_name": "Klinik Desa Sungai Sireh", "web_category": "Klinik Desa", "web_district": "Kuala Selangor", "web_operator": "KKM", "web_sector": "Kerajaan", "web_locality": "Sungai Sireh", "web_status": "PERLU_SEMAKAN" }, "geometry": { "type": "Point", "coordinates": [ 101.172750647367366, 3.470827333416489 ] } },
{ "type": "Feature", "properties": { "FAC_ID": 87, "NAMA": "Klinik Desa Sungai Burong", "KATEGORI": "Klinik Desa", "SEKTOR": "Kerajaan", "OPERATOR": "KKM", "DAERAH": "Kuala Selangor", "LOKALITI": "Sungai Burong", "LATITUDE": 3.428, "LONGITUDE": 101.12, "SUMBER": "Senarai awam + anggaran lokasi", "SEMAKAN": "PERLU_SEMAKAN", "web_name": "Klinik Desa Sungai Burong", "web_category": "Klinik Desa", "web_district": "Kuala Selangor", "web_operator": "KKM", "web_sector": "Kerajaan", "web_locality": "Sungai Burong", "web_status": "PERLU_SEMAKAN" }, "geometry": { "type": "Point", "coordinates": [ 101.137409382709336, 3.462961688542207 ] } },
{ "type": "Feature", "properties": { "FAC_ID": 88, "NAMA": "Klinik Desa Sungai Panjang", "KATEGORI": "Klinik Desa", "SEKTOR": "Kerajaan", "OPERATOR": "KKM", "DAERAH": "Sabak Bernam", "LOKALITI": "Sungai Panjang", "LATITUDE": 3.6, "LONGITUDE": 101.054, "SUMBER": "Senarai awam + anggaran lokasi", "SEMAKAN": "PERLU_SEMAKAN", "web_name": "Klinik Desa Sungai Panjang", "web_category": "Klinik Desa", "web_district": "Sabak Bernam", "web_operator": "KKM", "web_sector": "Kerajaan", "web_locality": "Sungai Panjang", "web_status": "PERLU_SEMAKAN" }, "geometry": { "type": "Point", "coordinates": [ 101.054, 3.6 ] } }
]
}
