{
"type": "FeatureCollection",
"name": "label_pbt_selangor_2024",
"crs": { "type": "name", "properties": { "name": "urn:ogc:def:crs:OGC:1.3:CRS84" } },
"features": [
{ "type": "Feature", "properties": { "OBJECTID": 12, "KATEGORI": "Majlis Daerah", "NAMA_PBT": "Majlis Daerah Sabak Bernam", "Shape_area": 99812.092181500004, "web_name": "Majlis Daerah Sabak Bernam", "web_type": "Majlis Daerah", "web_area": 99812.092181500004 }, "geometry": { "type": "Point", "coordinates": [ 101.101580157936311, 3.678013092614651 ] } },
{ "type": "Feature", "properties": { "OBJECTID": 10, "KATEGORI": "Majlis Perbandaran", "NAMA_PBT": "Majlis Perbandaran Kuala Selangor", "Shape_area": 120199.195899, "web_name": "Majlis Perbandaran Kuala Selangor", "web_type": "Majlis Perbandaran", "web_area": 120199.195899 }, "geometry": { "type": "Point", "coordinates": [ 101.311369863743352, 3.379052930301528 ] } },
{ "type": "Feature", "properties": { "OBJECTID": 3, "KATEGORI": "Majlis Bandaraya", "NAMA_PBT": "Majlis Bandaraya Subang Jaya", "Shape_area": 16344.953436899999, "web_name": "Majlis Bandaraya Subang Jaya", "web_type": "Majlis Bandaraya", "web_area": 16344.953436899999 }, "geometry": { "type": "Point", "coordinates": [ 101.65137231149285, 3.030431642692515 ] } },
{ "type": "Feature", "properties": { "OBJECTID": 2, "KATEGORI": "Majlis Bandaraya", "NAMA_PBT": "Majlis Bandaraya Petaling Jaya", "Shape_area": 9780.1416452899994, "web_name": "Majlis Bandaraya Petaling Jaya", "web_type": "Majlis Bandaraya", "web_area": 9780.1416452899994 }, "geometry": { "type": "Point", "coordinates": [ 101.590136985069421, 3.138930269293263 ] } },
{ "type": "Feature", "properties": { "OBJECTID": 9, "KATEGORI": "Majlis Perbandaran", "NAMA_PBT": "Majlis Perbandaran Kuala Langat", "Shape_area": 85881.077526599998, "web_name": "Majlis Perbandaran Kuala Langat", "web_type": "Majlis Perbandaran", "web_area": 85881.077526599998 }, "geometry": { "type": "Point", "coordinates": [ 101.524621187577409, 2.810969027777331 ] } },
{ "type": "Feature", "properties": { "OBJECTID": 11, "KATEGORI": "Majlis Perbandaran", "NAMA_PBT": "Majlis Perbandaran Hulu Selangor", "Shape_area": 175591.952594, "web_name": "Majlis Perbandaran Hulu Selangor", "web_type": "Majlis Perbandaran", "web_area": 175591.952594 }, "geometry": { "type": "Point", "coordinates": [ 101.599343743303123, 3.562596077399167 ] } },
{ "type": "Feature", "properties": { "OBJECTID": 8, "KATEGORI": "Majlis Perbandaran", "NAMA_PBT": "Majlis Perbandaran Sepang", "Shape_area": 55101.121349399997, "web_name": "Majlis Perbandaran Sepang", "web_type": "Majlis Perbandaran", "web_area": 55101.121349399997 }, "geometry": { "type": "Point", "coordinates": [ 101.713976565284284, 2.801832743236496 ] } },
{ "type": "Feature", "properties": { "OBJECTID": 6, "KATEGORI": "Majlis Perbandaran", "NAMA_PBT": "Majlis Perbandaran Kajang", "Shape_area": 80543.145331799999, "web_name": "Majlis Perbandaran Kajang", "web_type": "Majlis Perbandaran", "web_area": 80543.145331799999 }, "geometry": { "type": "Point", "coordinates": [ 101.856039431564199, 3.07096371559063 ] } },
{ "type": "Feature", "properties": { "OBJECTID": 7, "KATEGORI": "Majlis Perbandaran", "NAMA_PBT": "Majlis Perbandaran Ampang Jaya", "Shape_area": 13914.661990099999, "web_name": "Majlis Perbandaran Ampang Jaya", "web_type": "Majlis Perbandaran", "web_area": 13914.661990099999 }, "geometry": { "type": "Point", "coordinates": [ 101.780708181783694, 3.186712695604068 ] } },
{ "type": "Feature", "properties": { "OBJECTID": 5, "KATEGORI": "Majlis Perbandaran", "NAMA_PBT": "Majlis Perbandaran Selayang", "Shape_area": 52326.336439500003, "web_name": "Majlis Perbandaran Selayang", "web_type": "Majlis Perbandaran", "web_area": 52326.336439500003 }, "geometry": { "type": "Point", "coordinates": [ 101.628366073140256, 3.300852069083509 ] } },
{ "type": "Feature", "properties": { "OBJECTID": 1, "KATEGORI": "Majlis Bandaraya", "NAMA_PBT": "Majlis Bandaraya Shah Alam", "Shape_area": 30119.449478899998, "web_name": "Majlis Bandaraya Shah Alam", "web_type": "Majlis Bandaraya", "web_area": 30119.449478899998 }, "geometry": { "type": "Point", "coordinates": [ 101.531101490950377, 3.090042044773201 ] } },
{ "type": "Feature", "properties": { "OBJECTID": 4, "KATEGORI": "Majlis Bandaraya", "NAMA_PBT": "Majlis Bandaraya Diraja Klang", "Shape_area": 55507.838543700003, "web_name": "Majlis Bandaraya Diraja Klang", "web_type": "Majlis Bandaraya", "web_area": 55507.838543700003 }, "geometry": { "type": "Point", "coordinates": [ 101.41591784315932, 3.04829578527874 ] } }
]
}
