{
"type": "FeatureCollection",
"name": "rail_stations_final",
"crs": { "type": "name", "properties": { "name": "urn:ogc:def:crs:OGC:1.3:CRS84" } },
"features": [
{ "type": "Feature", "properties": { "station_name": "Bandar Utama", "station_code": "SA01", "line_name": "LRT Shah Alam Line", "mode": "LRT", "operator": "Rapid Rail", "status": "active", "source": "Selangor_Rail_Network_Cleaned.zip (user finalized, duplicates removed)" }, "geometry": { "type": "Point", "coordinates": [ 101.618990030120003, 3.144959758160006, 0.0 ] } },
{ "type": "Feature", "properties": { "station_name": "Kayu Ara", "station_code": "SA02", "line_name": "LRT Shah Alam Line", "mode": "LRT", "operator": "Rapid Rail", "status": "active", "source": "Selangor_Rail_Network_Cleaned.zip (user finalized, duplicates removed)" }, "geometry": { "type": "Point", "coordinates": [ 101.616743800340004, 3.134830313310006, 0.0 ] } },
{ "type": "Feature", "properties": { "station_name": "BU 11", "station_code": "SA03", "line_name": "LRT Shah Alam Line", "mode": "LRT", "operator": "Rapid Rail", "status": "active", "source": "Selangor_Rail_Network_Cleaned.zip (user finalized, duplicates removed)" }, "geometry": { "type": "Point", "coordinates": [ 101.604582664670005, 3.133402834200004, 0.0 ] } },
{ "type": "Feature", "properties": { "station_name": "Damansara Idaman", "station_code": "SA05", "line_name": "LRT Shah Alam Line", "mode": "LRT", "operator": "Rapid Rail", "status": "active", "source": "Selangor_Rail_Network_Cleaned.zip (user finalized, duplicates removed)" }, "geometry": { "type": "Point", "coordinates": [ 101.594215926830003, 3.122756938930003, 0.0 ] } },
{ "type": "Feature", "properties": { "station_name": "Subang", "station_code": "SA06", "line_name": "LRT Shah Alam Line", "mode": "LRT", "operator": "Rapid Rail", "status": "active", "source": "Selangor_Rail_Network_Cleaned.zip (user finalized, duplicates removed)" }, "geometry": { "type": "Point", "coordinates": [ 101.591163572970004, 3.106143770420003, 0.0 ] } },
{ "type": "Feature", "properties": { "station_name": "Glenmarie 2", "station_code": "SA07", "line_name": "LRT Shah Alam Line", "mode": "LRT", "operator": "Rapid Rail", "status": "active", "source": "Selangor_Rail_Network_Cleaned.zip (user finalized, duplicates removed)" }, "geometry": { "type": "Point", "coordinates": [ 101.588690576260007, 3.095184238950003, 0.0 ] } },
{ "type": "Feature", "properties": { "station_name": "Kerjaya", "station_code": "SA09", "line_name": "LRT Shah Alam Line", "mode": "LRT", "operator": "Rapid Rail", "status": "active", "source": "Selangor_Rail_Network_Cleaned.zip (user finalized, duplicates removed)" }, "geometry": { "type": "Point", "coordinates": [ 101.561959681209999, 3.082296199170001, 0.0 ] } },
{ "type": "Feature", "properties": { "station_name": "Stadium Shah Alam", "station_code": "SA10", "line_name": "LRT Shah Alam Line", "mode": "LRT", "operator": "Rapid Rail", "status": "active", "source": "Selangor_Rail_Network_Cleaned.zip (user finalized, duplicates removed)" }, "geometry": { "type": "Point", "coordinates": [ 101.549152133169997, 3.079960693940001, 0.0 ] } },
{ "type": "Feature", "properties": { "station_name": "Dato Menteri", "station_code": "SA12", "line_name": "LRT Shah Alam Line", "mode": "LRT", "operator": "Rapid Rail", "status": "active", "source": "Selangor_Rail_Network_Cleaned.zip (user finalized, duplicates removed)" }, "geometry": { "type": "Point", "coordinates": [ 101.521160581109996, 3.069903518720001, 0.0 ] } },
{ "type": "Feature", "properties": { "station_name": "UiTM Shah Alam", "station_code": "SA14", "line_name": "LRT Shah Alam Line", "mode": "LRT", "operator": "Rapid Rail", "status": "active", "source": "Selangor_Rail_Network_Cleaned.zip (user finalized, duplicates removed)" }, "geometry": { "type": "Point", "coordinates": [ 101.501196918190004, 3.06278171732, 0.0 ] } },
{ "type": "Feature", "properties": { "station_name": "Seksyen 7 Shah Alam", "station_code": "SA15", "line_name": "LRT Shah Alam Line", "mode": "LRT", "operator": "Rapid Rail", "status": "active", "source": "Selangor_Rail_Network_Cleaned.zip (user finalized, duplicates removed)" }, "geometry": { "type": "Point", "coordinates": [ 101.487005350290005, 3.0674501195, 0.0 ] } },
{ "type": "Feature", "properties": { "station_name": "Bandar Baru Klang", "station_code": "SA17", "line_name": "LRT Shah Alam Line", "mode": "LRT", "operator": "Rapid Rail", "status": "active", "source": "Selangor_Rail_Network_Cleaned.zip (user finalized, duplicates removed)" }, "geometry": { "type": "Point", "coordinates": [ 101.465928551850013, 3.06267993897, 0.0 ] } },
{ "type": "Feature", "properties": { "station_name": "Pasar Klang", "station_code": "SA18", "line_name": "LRT Shah Alam Line", "mode": "LRT", "operator": "Rapid Rail", "status": "active", "source": "Selangor_Rail_Network_Cleaned.zip (user finalized, duplicates removed)" }, "geometry": { "type": "Point", "coordinates": [ 101.450833079519995, 3.0679536522, 0.0 ] } },
{ "type": "Feature", "properties": { "station_name": "Jalan Meru", "station_code": "SA19", "line_name": "LRT Shah Alam Line", "mode": "LRT", "operator": "Rapid Rail", "status": "active", "source": "Selangor_Rail_Network_Cleaned.zip (user finalized, duplicates removed)" }, "geometry": { "type": "Point", "coordinates": [ 101.452056166830005, 3.05906144422, 0.0 ] } },
{ "type": "Feature", "properties": { "station_name": "Jambatan Kota", "station_code": "SA20", "line_name": "LRT Shah Alam Line", "mode": "LRT", "operator": "Rapid Rail", "status": "active", "source": "Selangor_Rail_Network_Cleaned.zip (user finalized, duplicates removed)" }, "geometry": { "type": "Point", "coordinates": [ 101.447571513349999, 3.0474827147, 0.0 ] } },
{ "type": "Feature", "properties": { "station_name": "Hospital Tengku Ampuan Rahimah", "station_code": "SA21", "line_name": "LRT Shah Alam Line", "mode": "LRT", "operator": "Rapid Rail", "status": "active", "source": "Selangor_Rail_Network_Cleaned.zip (user finalized, duplicates removed)" }, "geometry": { "type": "Point", "coordinates": [ 101.44239216775, 3.02693639075, 0.0 ] } },
{ "type": "Feature", "properties": { "station_name": "Seri Andalas", "station_code": "SA22", "line_name": "LRT Shah Alam Line", "mode": "LRT", "operator": "Rapid Rail", "status": "active", "source": "Selangor_Rail_Network_Cleaned.zip (user finalized, duplicates removed)" }, "geometry": { "type": "Point", "coordinates": [ 101.440758702460002, 3.0161153307, 0.0 ] } },
{ "type": "Feature", "properties": { "station_name": "Klang Jaya", "station_code": "SA23", "line_name": "LRT Shah Alam Line", "mode": "LRT", "operator": "Rapid Rail", "status": "active", "source": "Selangor_Rail_Network_Cleaned.zip (user finalized, duplicates removed)" }, "geometry": { "type": "Point", "coordinates": [ 101.441914734540006, 3.00542541046, 0.0 ] } },
{ "type": "Feature", "properties": { "station_name": "Bandar Bukit Tinggi", "station_code": "SA24", "line_name": "LRT Shah Alam Line", "mode": "LRT", "operator": "Rapid Rail", "status": "active", "source": "Selangor_Rail_Network_Cleaned.zip (user finalized, duplicates removed)" }, "geometry": { "type": "Point", "coordinates": [ 101.446031925379998, 2.99314700655, 0.0 ] } },
{ "type": "Feature", "properties": { "station_name": "Johan Setia", "station_code": "SA26", "line_name": "LRT Shah Alam Line", "mode": "LRT", "operator": "Rapid Rail", "status": "active", "source": "Selangor_Rail_Network_Cleaned.zip (user finalized, duplicates removed)" }, "geometry": { "type": "Point", "coordinates": [ 101.459341046510005, 2.976411299139999, 0.0 ] } },
{ "type": "Feature", "properties": { "station_name": "Gombak", "station_code": "KJ01", "line_name": "LRT Kelana Jaya Line", "mode": "LRT", "operator": "Rapid Rail", "status": "active", "source": "Selangor_Rail_Network_Cleaned.zip (user finalized, duplicates removed)" }, "geometry": { "type": "Point", "coordinates": [ 101.724287177718779, 3.23121026985002, 0.0 ] } },
{ "type": "Feature", "properties": { "station_name": "Taman Melati", "station_code": "KJ02", "line_name": "LRT Kelana Jaya Line", "mode": "LRT", "operator": "Rapid Rail", "status": "active", "source": "Selangor_Rail_Network_Cleaned.zip (user finalized, duplicates removed)" }, "geometry": { "type": "Point", "coordinates": [ 101.72177828503618, 3.219463705662417, 0.0 ] } },
{ "type": "Feature", "properties": { "station_name": "Wangsa Maju", "station_code": "KJ03", "line_name": "LRT Kelana Jaya Line", "mode": "LRT", "operator": "Rapid Rail", "status": "active", "source": "Selangor_Rail_Network_Cleaned.zip (user finalized, duplicates removed)" }, "geometry": { "type": "Point", "coordinates": [ 101.737232195070149, 3.199032912438583, 0.0 ] } },
{ "type": "Feature", "properties": { "station_name": "Sri Rampai", "station_code": "KJ04", "line_name": "LRT Kelana Jaya Line", "mode": "LRT", "operator": "Rapid Rail", "status": "active", "source": "Selangor_Rail_Network_Cleaned.zip (user finalized, duplicates removed)" }, "geometry": { "type": "Point", "coordinates": [ 101.736005113049515, 3.175693051372029, 0.0 ] } },
{ "type": "Feature", "properties": { "station_name": "Setiawangsa", "station_code": "KJ05", "line_name": "LRT Kelana Jaya Line", "mode": "LRT", "operator": "Rapid Rail", "status": "active", "source": "Selangor_Rail_Network_Cleaned.zip (user finalized, duplicates removed)" }, "geometry": { "type": "Point", "coordinates": [ 101.736899446510748, 3.178165630599448, 0.0 ] } },
{ "type": "Feature", "properties": { "station_name": "Jelatek", "station_code": "KJ06", "line_name": "LRT Kelana Jaya Line", "mode": "LRT", "operator": "Rapid Rail", "status": "active", "source": "Selangor_Rail_Network_Cleaned.zip (user finalized, duplicates removed)" }, "geometry": { "type": "Point", "coordinates": [ 101.735299093830804, 3.167307627061024, 0.0 ] } },
{ "type": "Feature", "properties": { "station_name": "Dato' Keramat", "station_code": "KJ07", "line_name": "LRT Kelana Jaya Line", "mode": "LRT", "operator": "Rapid Rail", "status": "active", "source": "Selangor_Rail_Network_Cleaned.zip (user finalized, duplicates removed)" }, "geometry": { "type": "Point", "coordinates": [ 101.731851644972323, 3.165051914302167, 0.0 ] } },
{ "type": "Feature", "properties": { "station_name": "Damai", "station_code": "KJ08", "line_name": "LRT Kelana Jaya Line", "mode": "LRT", "operator": "Rapid Rail", "status": "active", "source": "Selangor_Rail_Network_Cleaned.zip (user finalized, duplicates removed)" }, "geometry": { "type": "Point", "coordinates": [ 101.724404550117185, 3.164475759204203, 0.0 ] } },
{ "type": "Feature", "properties": { "station_name": "Ampang Park", "station_code": "KJ09", "line_name": "LRT Kelana Jaya Line", "mode": "LRT", "operator": "Rapid Rail", "status": "active", "source": "Selangor_Rail_Network_Cleaned.zip (user finalized, duplicates removed)" }, "geometry": { "type": "Point", "coordinates": [ 101.71876206443541, 3.159833720223762, 0.0 ] } },
{ "type": "Feature", "properties": { "station_name": "KLCC", "station_code": "KJ10", "line_name": "LRT Kelana Jaya Line", "mode": "LRT", "operator": "Rapid Rail", "status": "active", "source": "Selangor_Rail_Network_Cleaned.zip (user finalized, duplicates removed)" }, "geometry": { "type": "Point", "coordinates": [ 101.713328650395326, 3.159473394492651, 0.0 ] } },
{ "type": "Feature", "properties": { "station_name": "Kampung Baru", "station_code": "KJ11", "line_name": "LRT Kelana Jaya Line", "mode": "LRT", "operator": "Rapid Rail", "status": "active", "source": "Selangor_Rail_Network_Cleaned.zip (user finalized, duplicates removed)" }, "geometry": { "type": "Point", "coordinates": [ 101.706658619376427, 3.161479358918974, 0.0 ] } },
{ "type": "Feature", "properties": { "station_name": "Dang Wangi", "station_code": "KJ12", "line_name": "LRT Kelana Jaya Line", "mode": "LRT", "operator": "Rapid Rail", "status": "active", "source": "Selangor_Rail_Network_Cleaned.zip (user finalized, duplicates removed)" }, "geometry": { "type": "Point", "coordinates": [ 101.701793069681486, 3.156992567239371, 0.0 ] } },
{ "type": "Feature", "properties": { "station_name": "Masjid Jamek", "station_code": "KJ13", "line_name": "LRT Kelana Jaya Line", "mode": "LRT", "operator": "Rapid Rail", "status": "active", "source": "Selangor_Rail_Network_Cleaned.zip (user finalized, duplicates removed)" }, "geometry": { "type": "Point", "coordinates": [ 101.696444145992231, 3.149450975056104, 0.0 ] } },
{ "type": "Feature", "properties": { "station_name": "Pasar Seni", "station_code": "KJ14", "line_name": "LRT Kelana Jaya Line", "mode": "LRT", "operator": "Rapid Rail", "status": "active", "source": "Selangor_Rail_Network_Cleaned.zip (user finalized, duplicates removed)" }, "geometry": { "type": "Point", "coordinates": [ 101.695328698660504, 3.14206410918238, 0.0 ] } },
{ "type": "Feature", "properties": { "station_name": "KL Sentral", "station_code": "KJ15", "line_name": "LRT Kelana Jaya Line", "mode": "LRT", "operator": "Rapid Rail", "status": "active", "source": "Selangor_Rail_Network_Cleaned.zip (user finalized, duplicates removed)" }, "geometry": { "type": "Point", "coordinates": [ 101.686516702681132, 3.134118237663657, 0.0 ] } },
{ "type": "Feature", "properties": { "station_name": "Bangsar", "station_code": "KJ16", "line_name": "LRT Kelana Jaya Line", "mode": "LRT", "operator": "Rapid Rail", "status": "active", "source": "Selangor_Rail_Network_Cleaned.zip (user finalized, duplicates removed)" }, "geometry": { "type": "Point", "coordinates": [ 101.679073970246975, 3.127540372720977, 0.0 ] } },
{ "type": "Feature", "properties": { "station_name": "Abdullah Hukum", "station_code": "KJ17", "line_name": "LRT Kelana Jaya Line", "mode": "LRT", "operator": "Rapid Rail", "status": "active", "source": "Selangor_Rail_Network_Cleaned.zip (user finalized, duplicates removed)" }, "geometry": { "type": "Point", "coordinates": [ 101.673318466353393, 3.118851553111305, 0.0 ] } },
{ "type": "Feature", "properties": { "station_name": "Kerinchi", "station_code": "KJ18", "line_name": "LRT Kelana Jaya Line", "mode": "LRT", "operator": "Rapid Rail", "status": "active", "source": "Selangor_Rail_Network_Cleaned.zip (user finalized, duplicates removed)" }, "geometry": { "type": "Point", "coordinates": [ 101.668487885971956, 3.115479183369146, 0.0 ] } },
{ "type": "Feature", "properties": { "station_name": "Universiti", "station_code": "KJ19", "line_name": "LRT Kelana Jaya Line", "mode": "LRT", "operator": "Rapid Rail", "status": "active", "source": "Selangor_Rail_Network_Cleaned.zip (user finalized, duplicates removed)" }, "geometry": { "type": "Point", "coordinates": [ 101.661727617487472, 3.114547802622291, 0.0 ] } },
{ "type": "Feature", "properties": { "station_name": "Taman Jaya", "station_code": "KJ20", "line_name": "LRT Kelana Jaya Line", "mode": "LRT", "operator": "Rapid Rail", "status": "active", "source": "Selangor_Rail_Network_Cleaned.zip (user finalized, duplicates removed)" }, "geometry": { "type": "Point", "coordinates": [ 101.645301085855735, 3.104052682817234, 0.0 ] } },
{ "type": "Feature", "properties": { "station_name": "Asia Jaya", "station_code": "KJ21", "line_name": "LRT Kelana Jaya Line", "mode": "LRT", "operator": "Rapid Rail", "status": "active", "source": "Selangor_Rail_Network_Cleaned.zip (user finalized, duplicates removed)" }, "geometry": { "type": "Point", "coordinates": [ 101.63773190898722, 3.104351195520031, 0.0 ] } },
{ "type": "Feature", "properties": { "station_name": "Taman Paramount", "station_code": "KJ22", "line_name": "LRT Kelana Jaya Line", "mode": "LRT", "operator": "Rapid Rail", "status": "active", "source": "Selangor_Rail_Network_Cleaned.zip (user finalized, duplicates removed)" }, "geometry": { "type": "Point", "coordinates": [ 101.623198071633695, 3.104679939088311, 0.0 ] } },
{ "type": "Feature", "properties": { "station_name": "Taman Bahagia", "station_code": "KJ23", "line_name": "LRT Kelana Jaya Line", "mode": "LRT", "operator": "Rapid Rail", "status": "active", "source": "Selangor_Rail_Network_Cleaned.zip (user finalized, duplicates removed)" }, "geometry": { "type": "Point", "coordinates": [ 101.612707119410828, 3.110702321148224, 0.0 ] } },
{ "type": "Feature", "properties": { "station_name": "Kelana Jaya", "station_code": "KJ24", "line_name": "LRT Kelana Jaya Line", "mode": "LRT", "operator": "Rapid Rail", "status": "active", "source": "Selangor_Rail_Network_Cleaned.zip (user finalized, duplicates removed)" }, "geometry": { "type": "Point", "coordinates": [ 101.604500793644874, 3.112462636761503, 0.0 ] } },
{ "type": "Feature", "properties": { "station_name": "Lembah Subang", "station_code": "KJ25", "line_name": "LRT Kelana Jaya Line", "mode": "LRT", "operator": "Rapid Rail", "status": "active", "source": "Selangor_Rail_Network_Cleaned.zip (user finalized, duplicates removed)" }, "geometry": { "type": "Point", "coordinates": [ 101.591318149371133, 3.111941305389651, 0.0 ] } },
{ "type": "Feature", "properties": { "station_name": "Ara Damansara", "station_code": "KJ26", "line_name": "LRT Kelana Jaya Line", "mode": "LRT", "operator": "Rapid Rail", "status": "active", "source": "Selangor_Rail_Network_Cleaned.zip (user finalized, duplicates removed)" }, "geometry": { "type": "Point", "coordinates": [ 101.586624574844535, 3.108428179571401, 0.0 ] } },
{ "type": "Feature", "properties": { "station_name": "Glenmarie", "station_code": "KJ27", "line_name": "LRT Kelana Jaya Line", "mode": "LRT", "operator": "Rapid Rail", "status": "active", "source": "Selangor_Rail_Network_Cleaned.zip (user finalized, duplicates removed)" }, "geometry": { "type": "Point", "coordinates": [ 101.590420140327879, 3.09597239484254, 0.0 ] } },
{ "type": "Feature", "properties": { "station_name": "Subang Jaya", "station_code": "KJ28", "line_name": "LRT Kelana Jaya Line", "mode": "LRT", "operator": "Rapid Rail", "status": "active", "source": "Selangor_Rail_Network_Cleaned.zip (user finalized, duplicates removed)" }, "geometry": { "type": "Point", "coordinates": [ 101.58731191584576, 3.0847621457983, 0.0 ] } },
{ "type": "Feature", "properties": { "station_name": "SS15", "station_code": "KJ29", "line_name": "LRT Kelana Jaya Line", "mode": "LRT", "operator": "Rapid Rail", "status": "active", "source": "Selangor_Rail_Network_Cleaned.zip (user finalized, duplicates removed)" }, "geometry": { "type": "Point", "coordinates": [ 101.58617837201426, 3.075686418073414, 0.0 ] } },
{ "type": "Feature", "properties": { "station_name": "SS18", "station_code": "KJ30", "line_name": "LRT Kelana Jaya Line", "mode": "LRT", "operator": "Rapid Rail", "status": "active", "source": "Selangor_Rail_Network_Cleaned.zip (user finalized, duplicates removed)" }, "geometry": { "type": "Point", "coordinates": [ 101.586180197977541, 3.066897529194844, 0.0 ] } },
{ "type": "Feature", "properties": { "station_name": "USJ7", "station_code": "KJ31", "line_name": "LRT Kelana Jaya Line", "mode": "LRT", "operator": "Rapid Rail", "status": "active", "source": "Selangor_Rail_Network_Cleaned.zip (user finalized, duplicates removed)" }, "geometry": { "type": "Point", "coordinates": [ 101.591999985205675, 3.054802753790852, 0.0 ] } },
{ "type": "Feature", "properties": { "station_name": "Taipan", "station_code": "KJ32", "line_name": "LRT Kelana Jaya Line", "mode": "LRT", "operator": "Rapid Rail", "status": "active", "source": "Selangor_Rail_Network_Cleaned.zip (user finalized, duplicates removed)" }, "geometry": { "type": "Point", "coordinates": [ 101.590160014798016, 3.047810339466505, 0.0 ] } },
{ "type": "Feature", "properties": { "station_name": "Wawasan", "station_code": "KJ33", "line_name": "LRT Kelana Jaya Line", "mode": "LRT", "operator": "Rapid Rail", "status": "active", "source": "Selangor_Rail_Network_Cleaned.zip (user finalized, duplicates removed)" }, "geometry": { "type": "Point", "coordinates": [ 101.588104803945356, 3.035051471022566, 0.0 ] } },
{ "type": "Feature", "properties": { "station_name": "USJ21", "station_code": "KJ34", "line_name": "LRT Kelana Jaya Line", "mode": "LRT", "operator": "Rapid Rail", "status": "active", "source": "Selangor_Rail_Network_Cleaned.zip (user finalized, duplicates removed)" }, "geometry": { "type": "Point", "coordinates": [ 101.581808464840066, 3.029746726955401, 0.0 ] } },
{ "type": "Feature", "properties": { "station_name": "Alam Megah", "station_code": "KJ35", "line_name": "LRT Kelana Jaya Line", "mode": "LRT", "operator": "Rapid Rail", "status": "active", "source": "Selangor_Rail_Network_Cleaned.zip (user finalized, duplicates removed)" }, "geometry": { "type": "Point", "coordinates": [ 101.572101129666876, 3.022911987970871, 0.0 ] } },
{ "type": "Feature", "properties": { "station_name": "Subang Alam", "station_code": "KJ36", "line_name": "LRT Kelana Jaya Line", "mode": "LRT", "operator": "Rapid Rail", "status": "active", "source": "Selangor_Rail_Network_Cleaned.zip (user finalized, duplicates removed)" }, "geometry": { "type": "Point", "coordinates": [ 101.572118079218058, 3.009607553189172, 0.0 ] } },
{ "type": "Feature", "properties": { "station_name": "Putra Heights", "station_code": "KJ37", "line_name": "LRT Kelana Jaya Line", "mode": "LRT", "operator": "Rapid Rail", "status": "active", "source": "Selangor_Rail_Network_Cleaned.zip (user finalized, duplicates removed)" }, "geometry": { "type": "Point", "coordinates": [ 101.575596613114968, 2.996040141970613, 0.0 ] } },
{ "type": "Feature", "properties": { "station_name": "Sentul Timur", "station_code": "AG01", "line_name": "LRT Ampang Line", "mode": "LRT", "operator": "Rapid Rail", "status": "active", "source": "Selangor_Rail_Network_Cleaned.zip (user finalized, duplicates removed)" }, "geometry": { "type": "Point", "coordinates": [ 101.695302269394702, 3.185899412250842, 0.0 ] } },
{ "type": "Feature", "properties": { "station_name": "Sentul", "station_code": "AG02", "line_name": "LRT Ampang Line", "mode": "LRT", "operator": "Rapid Rail", "status": "active", "source": "Selangor_Rail_Network_Cleaned.zip (user finalized, duplicates removed)" }, "geometry": { "type": "Point", "coordinates": [ 101.688594217563761, 3.181854086099584, 0.0 ] } },
{ "type": "Feature", "properties": { "station_name": "Titiwangsa", "station_code": "AG03", "line_name": "LRT Ampang Line", "mode": "LRT", "operator": "Rapid Rail", "status": "active", "source": "Selangor_Rail_Network_Cleaned.zip (user finalized, duplicates removed)" }, "geometry": { "type": "Point", "coordinates": [ 101.69523910373016, 3.173505205755208, 0.0 ] } },
{ "type": "Feature", "properties": { "station_name": "PWTC", "station_code": "AG04", "line_name": "LRT Ampang Line", "mode": "LRT", "operator": "Rapid Rail", "status": "active", "source": "Selangor_Rail_Network_Cleaned.zip (user finalized, duplicates removed)" }, "geometry": { "type": "Point", "coordinates": [ 101.693570782423251, 3.166578809568783, 0.0 ] } },
{ "type": "Feature", "properties": { "station_name": "Sultan Ismail", "station_code": "AG05", "line_name": "LRT Ampang Line", "mode": "LRT", "operator": "Rapid Rail", "status": "active", "source": "Selangor_Rail_Network_Cleaned.zip (user finalized, duplicates removed)" }, "geometry": { "type": "Point", "coordinates": [ 101.694110748028749, 3.161183092260263, 0.0 ] } },
{ "type": "Feature", "properties": { "station_name": "Bandaraya", "station_code": "AG06", "line_name": "LRT Ampang Line", "mode": "LRT", "operator": "Rapid Rail", "status": "active", "source": "Selangor_Rail_Network_Cleaned.zip (user finalized, duplicates removed)" }, "geometry": { "type": "Point", "coordinates": [ 101.694430467722952, 3.155590041139036, 0.0 ] } },
{ "type": "Feature", "properties": { "station_name": "Masjid Jamek", "station_code": "AG07", "line_name": "LRT Ampang Line", "mode": "LRT", "operator": "Rapid Rail", "status": "active", "source": "Selangor_Rail_Network_Cleaned.zip (user finalized, duplicates removed)" }, "geometry": { "type": "Point", "coordinates": [ 101.696446026629076, 3.149404293169802, 0.0 ] } },
{ "type": "Feature", "properties": { "station_name": "Plaza Rakyat", "station_code": "AG08", "line_name": "LRT Ampang Line", "mode": "LRT", "operator": "Rapid Rail", "status": "active", "source": "Selangor_Rail_Network_Cleaned.zip (user finalized, duplicates removed)" }, "geometry": { "type": "Point", "coordinates": [ 101.702196391644875, 3.144108755803984, 0.0 ] } },
{ "type": "Feature", "properties": { "station_name": "Hang Tuah", "station_code": "AG09", "line_name": "LRT Ampang Line", "mode": "LRT", "operator": "Rapid Rail", "status": "active", "source": "Selangor_Rail_Network_Cleaned.zip (user finalized, duplicates removed)" }, "geometry": { "type": "Point", "coordinates": [ 101.706372205076221, 3.139684990916784, 0.0 ] } },
{ "type": "Feature", "properties": { "station_name": "Pudu", "station_code": "AG10", "line_name": "LRT Ampang Line", "mode": "LRT", "operator": "Rapid Rail", "status": "active", "source": "Selangor_Rail_Network_Cleaned.zip (user finalized, duplicates removed)" }, "geometry": { "type": "Point", "coordinates": [ 101.712021723858996, 3.134942051393161, 0.0 ] } },
{ "type": "Feature", "properties": { "station_name": "Chan Sow Lin", "station_code": "AG11", "line_name": "LRT Ampang Line", "mode": "LRT", "operator": "Rapid Rail", "status": "active", "source": "Selangor_Rail_Network_Cleaned.zip (user finalized, duplicates removed)" }, "geometry": { "type": "Point", "coordinates": [ 101.715571512677784, 3.127732509286551, 0.0 ] } },
{ "type": "Feature", "properties": { "station_name": "Miharja", "station_code": "AG12", "line_name": "LRT Ampang Line", "mode": "LRT", "operator": "Rapid Rail", "status": "active", "source": "Selangor_Rail_Network_Cleaned.zip (user finalized, duplicates removed)" }, "geometry": { "type": "Point", "coordinates": [ 101.717824755056085, 3.120948484269154, 0.0 ] } },
{ "type": "Feature", "properties": { "station_name": "Maluri", "station_code": "AG13", "line_name": "LRT Ampang Line", "mode": "LRT", "operator": "Rapid Rail", "status": "active", "source": "Selangor_Rail_Network_Cleaned.zip (user finalized, duplicates removed)" }, "geometry": { "type": "Point", "coordinates": [ 101.72694346183161, 3.123278553296112, 0.0 ] } },
{ "type": "Feature", "properties": { "station_name": "Pandan Jaya", "station_code": "AG14", "line_name": "LRT Ampang Line", "mode": "LRT", "operator": "Rapid Rail", "status": "active", "source": "Selangor_Rail_Network_Cleaned.zip (user finalized, duplicates removed)" }, "geometry": { "type": "Point", "coordinates": [ 101.738994232231235, 3.130213533487685, 0.0 ] } },
{ "type": "Feature", "properties": { "station_name": "Pandan Indah", "station_code": "AG15", "line_name": "LRT Ampang Line", "mode": "LRT", "operator": "Rapid Rail", "status": "active", "source": "Selangor_Rail_Network_Cleaned.zip (user finalized, duplicates removed)" }, "geometry": { "type": "Point", "coordinates": [ 101.74668182268249, 3.134786530002034, 0.0 ] } },
{ "type": "Feature", "properties": { "station_name": "Cempaka", "station_code": "AG16", "line_name": "LRT Ampang Line", "mode": "LRT", "operator": "Rapid Rail", "status": "active", "source": "Selangor_Rail_Network_Cleaned.zip (user finalized, duplicates removed)" }, "geometry": { "type": "Point", "coordinates": [ 101.752977076504777, 3.138493892896943, 0.0 ] } },
{ "type": "Feature", "properties": { "station_name": "Cahaya", "station_code": "AG17", "line_name": "LRT Ampang Line", "mode": "LRT", "operator": "Rapid Rail", "status": "active", "source": "Selangor_Rail_Network_Cleaned.zip (user finalized, duplicates removed)" }, "geometry": { "type": "Point", "coordinates": [ 101.756653038729397, 3.140600911809628, 0.0 ] } },
{ "type": "Feature", "properties": { "station_name": "Ampang", "station_code": "AG18", "line_name": "LRT Ampang Line", "mode": "LRT", "operator": "Rapid Rail", "status": "active", "source": "Selangor_Rail_Network_Cleaned.zip (user finalized, duplicates removed)" }, "geometry": { "type": "Point", "coordinates": [ 101.76011500228293, 3.150350568732856, 0.0 ] } },
{ "type": "Feature", "properties": { "station_name": "Sentul Timur", "station_code": "SP01", "line_name": "LRT Sri Petaling Line", "mode": "LRT", "operator": "Rapid Rail", "status": "active", "source": "Selangor_Rail_Network_Cleaned.zip (user finalized, duplicates removed)" }, "geometry": { "type": "Point", "coordinates": [ 101.695484590419881, 3.178571691316946, 0.0 ] } },
{ "type": "Feature", "properties": { "station_name": "Sentul", "station_code": "SP02", "line_name": "LRT Sri Petaling Line", "mode": "LRT", "operator": "Rapid Rail", "status": "active", "source": "Selangor_Rail_Network_Cleaned.zip (user finalized, duplicates removed)" }, "geometry": { "type": "Point", "coordinates": [ 101.688594217563761, 3.181854086099584, 0.0 ] } },
{ "type": "Feature", "properties": { "station_name": "Salak Selatan", "station_code": "SP13", "line_name": "LRT Sri Petaling Line", "mode": "LRT", "operator": "Rapid Rail", "status": "active", "source": "Selangor_Rail_Network_Cleaned.zip (user finalized, duplicates removed)" }, "geometry": { "type": "Point", "coordinates": [ 101.70627596510333, 3.102097247651213, 0.0 ] } },
{ "type": "Feature", "properties": { "station_name": "Bandar Tun Razak", "station_code": "SP14", "line_name": "LRT Sri Petaling Line", "mode": "LRT", "operator": "Rapid Rail", "status": "active", "source": "Selangor_Rail_Network_Cleaned.zip (user finalized, duplicates removed)" }, "geometry": { "type": "Point", "coordinates": [ 101.712443006758818, 3.089605439431266, 0.0 ] } },
{ "type": "Feature", "properties": { "station_name": "Bandar Tasik Selatan", "station_code": "SP15", "line_name": "LRT Sri Petaling Line", "mode": "LRT", "operator": "Rapid Rail", "status": "active", "source": "Selangor_Rail_Network_Cleaned.zip (user finalized, duplicates removed)" }, "geometry": { "type": "Point", "coordinates": [ 101.711280889141776, 3.076123733447106, 0.0 ] } },
{ "type": "Feature", "properties": { "station_name": "Sungai Besi", "station_code": "SP16", "line_name": "LRT Sri Petaling Line", "mode": "LRT", "operator": "Rapid Rail", "status": "active", "source": "Selangor_Rail_Network_Cleaned.zip (user finalized, duplicates removed)" }, "geometry": { "type": "Point", "coordinates": [ 101.708023955410368, 3.063925066415345, 0.0 ] } },
{ "type": "Feature", "properties": { "station_name": "Bukit Jalil", "station_code": "SP17", "line_name": "LRT Sri Petaling Line", "mode": "LRT", "operator": "Rapid Rail", "status": "active", "source": "Selangor_Rail_Network_Cleaned.zip (user finalized, duplicates removed)" }, "geometry": { "type": "Point", "coordinates": [ 101.692184889523134, 3.058197418658969, 0.0 ] } },
{ "type": "Feature", "properties": { "station_name": "Sri Petaling", "station_code": "SP18", "line_name": "LRT Sri Petaling Line", "mode": "LRT", "operator": "Rapid Rail", "status": "active", "source": "Selangor_Rail_Network_Cleaned.zip (user finalized, duplicates removed)" }, "geometry": { "type": "Point", "coordinates": [ 101.687088532965319, 3.061569489294526, 0.0 ] } },
{ "type": "Feature", "properties": { "station_name": "Awan Besar", "station_code": "SP19", "line_name": "LRT Sri Petaling Line", "mode": "LRT", "operator": "Rapid Rail", "status": "active", "source": "Selangor_Rail_Network_Cleaned.zip (user finalized, duplicates removed)" }, "geometry": { "type": "Point", "coordinates": [ 101.670614129177665, 3.062188239886413, 0.0 ] } },
{ "type": "Feature", "properties": { "station_name": "Muhibbah", "station_code": "SP20", "line_name": "LRT Sri Petaling Line", "mode": "LRT", "operator": "Rapid Rail", "status": "active", "source": "Selangor_Rail_Network_Cleaned.zip (user finalized, duplicates removed)" }, "geometry": { "type": "Point", "coordinates": [ 101.662644027459066, 3.062067279192512, 0.0 ] } },
{ "type": "Feature", "properties": { "station_name": "Alam Sutera", "station_code": "SP21", "line_name": "LRT Sri Petaling Line", "mode": "LRT", "operator": "Rapid Rail", "status": "active", "source": "Selangor_Rail_Network_Cleaned.zip (user finalized, duplicates removed)" }, "geometry": { "type": "Point", "coordinates": [ 101.65639886417442, 3.054662233714341, 0.0 ] } },
{ "type": "Feature", "properties": { "station_name": "Kinrara BK5", "station_code": "SP22", "line_name": "LRT Sri Petaling Line", "mode": "LRT", "operator": "Rapid Rail", "status": "active", "source": "Selangor_Rail_Network_Cleaned.zip (user finalized, duplicates removed)" }, "geometry": { "type": "Point", "coordinates": [ 101.644324734011519, 3.050485006033855, 0.0 ] } },
{ "type": "Feature", "properties": { "station_name": "IOI Puchong Jaya", "station_code": "SP24", "line_name": "LRT Sri Petaling Line", "mode": "LRT", "operator": "Rapid Rail", "status": "active", "source": "Selangor_Rail_Network_Cleaned.zip (user finalized, duplicates removed)" }, "geometry": { "type": "Point", "coordinates": [ 101.621060158034609, 3.048227229337124, 0.0 ] } },
{ "type": "Feature", "properties": { "station_name": "Pusat Bandar Puchong", "station_code": "SP25", "line_name": "LRT Sri Petaling Line", "mode": "LRT", "operator": "Rapid Rail", "status": "active", "source": "Selangor_Rail_Network_Cleaned.zip (user finalized, duplicates removed)" }, "geometry": { "type": "Point", "coordinates": [ 101.616045650035133, 3.03322553164401, 0.0 ] } },
{ "type": "Feature", "properties": { "station_name": "Taman Perindustrian Puchong", "station_code": "SP26", "line_name": "LRT Sri Petaling Line", "mode": "LRT", "operator": "Rapid Rail", "status": "active", "source": "Selangor_Rail_Network_Cleaned.zip (user finalized, duplicates removed)" }, "geometry": { "type": "Point", "coordinates": [ 101.613514618647642, 3.022789331012966, 0.0 ] } },
{ "type": "Feature", "properties": { "station_name": "Bandar Puteri", "station_code": "SP27", "line_name": "LRT Sri Petaling Line", "mode": "LRT", "operator": "Rapid Rail", "status": "active", "source": "Selangor_Rail_Network_Cleaned.zip (user finalized, duplicates removed)" }, "geometry": { "type": "Point", "coordinates": [ 101.612923165945716, 3.016970332522952, 0.0 ] } },
{ "type": "Feature", "properties": { "station_name": "Puchong Perdana", "station_code": "SP28", "line_name": "LRT Sri Petaling Line", "mode": "LRT", "operator": "Rapid Rail", "status": "active", "source": "Selangor_Rail_Network_Cleaned.zip (user finalized, duplicates removed)" }, "geometry": { "type": "Point", "coordinates": [ 101.605286139771266, 3.00780402862496, 0.0 ] } },
{ "type": "Feature", "properties": { "station_name": "Puchong Prima", "station_code": "SP29", "line_name": "LRT Sri Petaling Line", "mode": "LRT", "operator": "Rapid Rail", "status": "active", "source": "Selangor_Rail_Network_Cleaned.zip (user finalized, duplicates removed)" }, "geometry": { "type": "Point", "coordinates": [ 101.596820720164402, 2.99984890935655, 0.0 ] } },
{ "type": "Feature", "properties": { "station_name": "Putra Heights", "station_code": "SP31", "line_name": "LRT Sri Petaling Line", "mode": "LRT", "operator": "Rapid Rail", "status": "active", "source": "Selangor_Rail_Network_Cleaned.zip (user finalized, duplicates removed)" }, "geometry": { "type": "Point", "coordinates": [ 101.575596613114968, 2.996040141970613, 0.0 ] } },
{ "type": "Feature", "properties": { "station_name": "Kwasa Damansara", "station_code": "KG04", "line_name": "MRT Kajang Line", "mode": "MRT", "operator": "Rapid Rail", "status": "active", "source": "Selangor_Rail_Network_Cleaned.zip (user finalized, duplicates removed)" }, "geometry": { "type": "Point", "coordinates": [ 101.572349562263923, 3.176270352811548, 0.0 ] } },
{ "type": "Feature", "properties": { "station_name": "Kwasa Sentral", "station_code": "KG05", "line_name": "MRT Kajang Line", "mode": "MRT", "operator": "Rapid Rail", "status": "active", "source": "Selangor_Rail_Network_Cleaned.zip (user finalized, duplicates removed)" }, "geometry": { "type": "Point", "coordinates": [ 101.564778831379115, 3.169809683283402, 0.0 ] } },
{ "type": "Feature", "properties": { "station_name": "Kota Damansara", "station_code": "KG06", "line_name": "MRT Kajang Line", "mode": "MRT", "operator": "Rapid Rail", "status": "active", "source": "Selangor_Rail_Network_Cleaned.zip (user finalized, duplicates removed)" }, "geometry": { "type": "Point", "coordinates": [ 101.57875689632489, 3.150210723970253, 0.0 ] } },
{ "type": "Feature", "properties": { "station_name": "Surian", "station_code": "KG07", "line_name": "MRT Kajang Line", "mode": "MRT", "operator": "Rapid Rail", "status": "active", "source": "Selangor_Rail_Network_Cleaned.zip (user finalized, duplicates removed)" }, "geometry": { "type": "Point", "coordinates": [ 101.59372041914564, 3.149599192884782, 0.0 ] } },
{ "type": "Feature", "properties": { "station_name": "Mutiara Damansara", "station_code": "KG08", "line_name": "MRT Kajang Line", "mode": "MRT", "operator": "Rapid Rail", "status": "active", "source": "Selangor_Rail_Network_Cleaned.zip (user finalized, duplicates removed)" }, "geometry": { "type": "Point", "coordinates": [ 101.60886388144803, 3.155271176784125, 0.0 ] } },
{ "type": "Feature", "properties": { "station_name": "Bandar Utama", "station_code": "KG09", "line_name": "MRT Kajang Line", "mode": "MRT", "operator": "Rapid Rail", "status": "active", "source": "Selangor_Rail_Network_Cleaned.zip (user finalized, duplicates removed)" }, "geometry": { "type": "Point", "coordinates": [ 101.618689920922989, 3.146647203278527, 0.0 ] } },
{ "type": "Feature", "properties": { "station_name": "TTDI", "station_code": "KG10", "line_name": "MRT Kajang Line", "mode": "MRT", "operator": "Rapid Rail", "status": "active", "source": "Selangor_Rail_Network_Cleaned.zip (user finalized, duplicates removed)" }, "geometry": { "type": "Point", "coordinates": [ 101.630696335242234, 3.136032672676849, 0.0 ] } },
{ "type": "Feature", "properties": { "station_name": "Phileo Damansara", "station_code": "KG12", "line_name": "MRT Kajang Line", "mode": "MRT", "operator": "Rapid Rail", "status": "active", "source": "Selangor_Rail_Network_Cleaned.zip (user finalized, duplicates removed)" }, "geometry": { "type": "Point", "coordinates": [ 101.6428160676722, 3.129155295212561, 0.0 ] } },
{ "type": "Feature", "properties": { "station_name": "Pusat Bandar Damansara", "station_code": "KG13", "line_name": "MRT Kajang Line", "mode": "MRT", "operator": "Rapid Rail", "status": "active", "source": "Selangor_Rail_Network_Cleaned.zip (user finalized, duplicates removed)" }, "geometry": { "type": "Point", "coordinates": [ 101.66922566000018, 3.1504815910001, 0.0 ] } },
{ "type": "Feature", "properties": { "station_name": "Muzium Negara", "station_code": "KG15", "line_name": "MRT Kajang Line", "mode": "MRT", "operator": "Rapid Rail", "status": "active", "source": "Selangor_Rail_Network_Cleaned.zip (user finalized, duplicates removed)" }, "geometry": { "type": "Point", "coordinates": [ 101.687366383439056, 3.137294126047721, 0.0 ] } },
{ "type": "Feature", "properties": { "station_name": "Pasar Seni", "station_code": "KG16", "line_name": "MRT Kajang Line", "mode": "MRT", "operator": "Rapid Rail", "status": "active", "source": "Selangor_Rail_Network_Cleaned.zip (user finalized, duplicates removed)" }, "geometry": { "type": "Point", "coordinates": [ 101.695947365244265, 3.14230471080997, 0.0 ] } },
{ "type": "Feature", "properties": { "station_name": "Merdeka", "station_code": "KG17", "line_name": "MRT Kajang Line", "mode": "MRT", "operator": "Rapid Rail", "status": "active", "source": "Selangor_Rail_Network_Cleaned.zip (user finalized, duplicates removed)" }, "geometry": { "type": "Point", "coordinates": [ 101.701706569701528, 3.142126271279828, 0.0 ] } },
{ "type": "Feature", "properties": { "station_name": "Bukit Bintang", "station_code": "KG18A", "line_name": "MRT Kajang Line", "mode": "MRT", "operator": "Rapid Rail", "status": "active", "source": "Selangor_Rail_Network_Cleaned.zip (user finalized, duplicates removed)" }, "geometry": { "type": "Point", "coordinates": [ 101.710930361477281, 3.146490120615582, 0.0 ] } },
{ "type": "Feature", "properties": { "station_name": "Tun Razak Exchange", "station_code": "KG20", "line_name": "MRT Kajang Line", "mode": "MRT", "operator": "Rapid Rail", "status": "active", "source": "Selangor_Rail_Network_Cleaned.zip (user finalized, duplicates removed)" }, "geometry": { "type": "Point", "coordinates": [ 101.719964259000164, 3.142360439000126, 0.0 ] } },
{ "type": "Feature", "properties": { "station_name": "Cochrane", "station_code": "KG21", "line_name": "MRT Kajang Line", "mode": "MRT", "operator": "Rapid Rail", "status": "active", "source": "Selangor_Rail_Network_Cleaned.zip (user finalized, duplicates removed)" }, "geometry": { "type": "Point", "coordinates": [ 101.722943994000161, 3.132354194000128, 0.0 ] } },
{ "type": "Feature", "properties": { "station_name": "Maluri", "station_code": "KG22", "line_name": "MRT Kajang Line", "mode": "MRT", "operator": "Rapid Rail", "status": "active", "source": "Selangor_Rail_Network_Cleaned.zip (user finalized, duplicates removed)" }, "geometry": { "type": "Point", "coordinates": [ 101.727246539000191, 3.124387409000116, 0.0 ] } },
{ "type": "Feature", "properties": { "station_name": "Taman Pertama", "station_code": "KG23", "line_name": "MRT Kajang Line", "mode": "MRT", "operator": "Rapid Rail", "status": "active", "source": "Selangor_Rail_Network_Cleaned.zip (user finalized, duplicates removed)" }, "geometry": { "type": "Point", "coordinates": [ 101.729255091000212, 3.112652034000119, 0.0 ] } },
{ "type": "Feature", "properties": { "station_name": "Taman Midah", "station_code": "KG24", "line_name": "MRT Kajang Line", "mode": "MRT", "operator": "Rapid Rail", "status": "active", "source": "Selangor_Rail_Network_Cleaned.zip (user finalized, duplicates removed)" }, "geometry": { "type": "Point", "coordinates": [ 101.732212294000192, 3.104348630000119, 0.0 ] } },
{ "type": "Feature", "properties": { "station_name": "Taman Mutiara", "station_code": "KG25", "line_name": "MRT Kajang Line", "mode": "MRT", "operator": "Rapid Rail", "status": "active", "source": "Selangor_Rail_Network_Cleaned.zip (user finalized, duplicates removed)" }, "geometry": { "type": "Point", "coordinates": [ 101.740307569000137, 3.09119669900008, 0.0 ] } },
{ "type": "Feature", "properties": { "station_name": "Taman Connaught", "station_code": "KG26", "line_name": "MRT Kajang Line", "mode": "MRT", "operator": "Rapid Rail", "status": "active", "source": "Selangor_Rail_Network_Cleaned.zip (user finalized, duplicates removed)" }, "geometry": { "type": "Point", "coordinates": [ 101.745125597000211, 3.079170359000105, 0.0 ] } },
{ "type": "Feature", "properties": { "station_name": "Taman Suntex", "station_code": "KG27", "line_name": "MRT Kajang Line", "mode": "MRT", "operator": "Rapid Rail", "status": "active", "source": "Selangor_Rail_Network_Cleaned.zip (user finalized, duplicates removed)" }, "geometry": { "type": "Point", "coordinates": [ 101.76335102100019, 3.071564238000127, 0.0 ] } },
{ "type": "Feature", "properties": { "station_name": "Sri Raya", "station_code": "KG28", "line_name": "MRT Kajang Line", "mode": "MRT", "operator": "Rapid Rail", "status": "active", "source": "Selangor_Rail_Network_Cleaned.zip (user finalized, duplicates removed)" }, "geometry": { "type": "Point", "coordinates": [ 101.772768367000225, 3.062174280000077, 0.0 ] } },
{ "type": "Feature", "properties": { "station_name": "Bandar Tun Hussein Onn", "station_code": "KG29", "line_name": "MRT Kajang Line", "mode": "MRT", "operator": "Rapid Rail", "status": "active", "source": "Selangor_Rail_Network_Cleaned.zip (user finalized, duplicates removed)" }, "geometry": { "type": "Point", "coordinates": [ 101.774952399000199, 3.048331108000143, 0.0 ] } },
{ "type": "Feature", "properties": { "station_name": "Batu 11 Cheras", "station_code": "KG30", "line_name": "MRT Kajang Line", "mode": "MRT", "operator": "Rapid Rail", "status": "active", "source": "Selangor_Rail_Network_Cleaned.zip (user finalized, duplicates removed)" }, "geometry": { "type": "Point", "coordinates": [ 101.773218915000186, 3.041235685000126, 0.0 ] } },
{ "type": "Feature", "properties": { "station_name": "Bukit Dukung", "station_code": "KG31", "line_name": "MRT Kajang Line", "mode": "MRT", "operator": "Rapid Rail", "status": "active", "source": "Selangor_Rail_Network_Cleaned.zip (user finalized, duplicates removed)" }, "geometry": { "type": "Point", "coordinates": [ 101.771007490000159, 3.0263612490001, 0.0 ] } },
{ "type": "Feature", "properties": { "station_name": "Sungai Jernih", "station_code": "KG33", "line_name": "MRT Kajang Line", "mode": "MRT", "operator": "Rapid Rail", "status": "active", "source": "Selangor_Rail_Network_Cleaned.zip (user finalized, duplicates removed)" }, "geometry": { "type": "Point", "coordinates": [ 101.784007499617587, 3.000557027523478, 0.0 ] } },
{ "type": "Feature", "properties": { "station_name": "Stadium Kajang", "station_code": "KG34", "line_name": "MRT Kajang Line", "mode": "MRT", "operator": "Rapid Rail", "status": "active", "source": "Selangor_Rail_Network_Cleaned.zip (user finalized, duplicates removed)" }, "geometry": { "type": "Point", "coordinates": [ 101.786430054000164, 2.993915278000089, 0.0 ] } },
{ "type": "Feature", "properties": { "station_name": "Kajang", "station_code": "KG35", "line_name": "MRT Kajang Line", "mode": "MRT", "operator": "Rapid Rail", "status": "active", "source": "Selangor_Rail_Network_Cleaned.zip (user finalized, duplicates removed)" }, "geometry": { "type": "Point", "coordinates": [ 101.79024358000018, 2.98311862200012, 0.0 ] } },
{ "type": "Feature", "properties": { "station_name": "Kwasa Damansara", "station_code": "PY01", "line_name": "MRT Putrajaya Line", "mode": "MRT", "operator": "Rapid Rail", "status": "active", "source": "Selangor_Rail_Network_Cleaned.zip (user finalized, duplicates removed)" }, "geometry": { "type": "Point", "coordinates": [ 101.572349562263909, 3.176270352811548, 0.0 ] } },
{ "type": "Feature", "properties": { "station_name": "Kampung Selamat", "station_code": "PY03", "line_name": "MRT Putrajaya Line", "mode": "MRT", "operator": "Rapid Rail", "status": "active", "source": "Selangor_Rail_Network_Cleaned.zip (user finalized, duplicates removed)" }, "geometry": { "type": "Point", "coordinates": [ 101.578389769875685, 3.197101172238597, 0.0 ] } },
{ "type": "Feature", "properties": { "station_name": "Sungai Buloh", "station_code": "PY04", "line_name": "MRT Putrajaya Line", "mode": "MRT", "operator": "Rapid Rail", "status": "active", "source": "Selangor_Rail_Network_Cleaned.zip (user finalized, duplicates removed)" }, "geometry": { "type": "Point", "coordinates": [ 101.580364994000135, 3.206506350000048, 0.0 ] } },
{ "type": "Feature", "properties": { "station_name": "Damansara Damai", "station_code": "PY05", "line_name": "MRT Putrajaya Line", "mode": "MRT", "operator": "Rapid Rail", "status": "active", "source": "Selangor_Rail_Network_Cleaned.zip (user finalized, duplicates removed)" }, "geometry": { "type": "Point", "coordinates": [ 101.59288228200019, 3.199732351000055, 0.0 ] } },
{ "type": "Feature", "properties": { "station_name": "Sri Damansara Barat", "station_code": "PY06", "line_name": "MRT Putrajaya Line", "mode": "MRT", "operator": "Rapid Rail", "status": "active", "source": "Selangor_Rail_Network_Cleaned.zip (user finalized, duplicates removed)" }, "geometry": { "type": "Point", "coordinates": [ 101.608434053000181, 3.19822241700011, 0.0 ] } },
{ "type": "Feature", "properties": { "station_name": "Sri Damansara Sentral", "station_code": "PY07", "line_name": "MRT Putrajaya Line", "mode": "MRT", "operator": "Rapid Rail", "status": "active", "source": "Selangor_Rail_Network_Cleaned.zip (user finalized, duplicates removed)" }, "geometry": { "type": "Point", "coordinates": [ 101.621097611000152, 3.198617527000085, 0.0 ] } },
{ "type": "Feature", "properties": { "station_name": "Sri Damansara Timur", "station_code": "PY08", "line_name": "MRT Putrajaya Line", "mode": "MRT", "operator": "Rapid Rail", "status": "active", "source": "Selangor_Rail_Network_Cleaned.zip (user finalized, duplicates removed)" }, "geometry": { "type": "Point", "coordinates": [ 101.62639622553489, 3.203738145635312, 0.0 ] } },
{ "type": "Feature", "properties": { "station_name": "Metro Prima", "station_code": "PY09", "line_name": "MRT Putrajaya Line", "mode": "MRT", "operator": "Rapid Rail", "status": "active", "source": "Selangor_Rail_Network_Cleaned.zip (user finalized, duplicates removed)" }, "geometry": { "type": "Point", "coordinates": [ 101.640388071000189, 3.21450678700011, 0.0 ] } },
{ "type": "Feature", "properties": { "station_name": "Kepong Baru", "station_code": "PY10", "line_name": "MRT Putrajaya Line", "mode": "MRT", "operator": "Rapid Rail", "status": "active", "source": "Selangor_Rail_Network_Cleaned.zip (user finalized, duplicates removed)" }, "geometry": { "type": "Point", "coordinates": [ 101.643906356760539, 3.21378998201417, 0.0 ] } },
{ "type": "Feature", "properties": { "station_name": "Jinjang", "station_code": "PY11", "line_name": "MRT Putrajaya Line", "mode": "MRT", "operator": "Rapid Rail", "status": "active", "source": "Selangor_Rail_Network_Cleaned.zip (user finalized, duplicates removed)" }, "geometry": { "type": "Point", "coordinates": [ 101.654468902472843, 3.209427331242055, 0.0 ] } },
{ "type": "Feature", "properties": { "station_name": "Sri Delima", "station_code": "PY12", "line_name": "MRT Putrajaya Line", "mode": "MRT", "operator": "Rapid Rail", "status": "active", "source": "Selangor_Rail_Network_Cleaned.zip (user finalized, duplicates removed)" }, "geometry": { "type": "Point", "coordinates": [ 101.66565224167843, 3.207098436914911, 0.0 ] } },
{ "type": "Feature", "properties": { "station_name": "Kampung Batu", "station_code": "PY13", "line_name": "MRT Putrajaya Line", "mode": "MRT", "operator": "Rapid Rail", "status": "active", "source": "Selangor_Rail_Network_Cleaned.zip (user finalized, duplicates removed)" }, "geometry": { "type": "Point", "coordinates": [ 101.675049991000165, 3.205987071000203, 0.0 ] } },
{ "type": "Feature", "properties": { "station_name": "Kentomen", "station_code": "PY14", "line_name": "MRT Putrajaya Line", "mode": "MRT", "operator": "Rapid Rail", "status": "active", "source": "Selangor_Rail_Network_Cleaned.zip (user finalized, duplicates removed)" }, "geometry": { "type": "Point", "coordinates": [ 101.679561609000174, 3.195449090000253, 0.0 ] } },
{ "type": "Feature", "properties": { "station_name": "Jalan Ipoh", "station_code": "PY15", "line_name": "MRT Putrajaya Line", "mode": "MRT", "operator": "Rapid Rail", "status": "active", "source": "Selangor_Rail_Network_Cleaned.zip (user finalized, duplicates removed)" }, "geometry": { "type": "Point", "coordinates": [ 101.68107193100019, 3.189348415000206, 0.0 ] } },
{ "type": "Feature", "properties": { "station_name": "Sentul Barat", "station_code": "PY16", "line_name": "MRT Putrajaya Line", "mode": "MRT", "operator": "Rapid Rail", "status": "active", "source": "Selangor_Rail_Network_Cleaned.zip (user finalized, duplicates removed)" }, "geometry": { "type": "Point", "coordinates": [ 101.685080840000168, 3.178732427000221, 0.0 ] } },
{ "type": "Feature", "properties": { "station_name": "Titiwangsa", "station_code": "PY17", "line_name": "MRT Putrajaya Line", "mode": "MRT", "operator": "Rapid Rail", "status": "active", "source": "Selangor_Rail_Network_Cleaned.zip (user finalized, duplicates removed)" }, "geometry": { "type": "Point", "coordinates": [ 101.696322856000165, 3.17455800300027, 0.0 ] } },
{ "type": "Feature", "properties": { "station_name": "Hospital Kuala Lumpur", "station_code": "PY18", "line_name": "MRT Putrajaya Line", "mode": "MRT", "operator": "Rapid Rail", "status": "active", "source": "Selangor_Rail_Network_Cleaned.zip (user finalized, duplicates removed)" }, "geometry": { "type": "Point", "coordinates": [ 101.701457315000212, 3.173780273000215, 0.0 ] } },
{ "type": "Feature", "properties": { "station_name": "Raja Uda", "station_code": "PY19", "line_name": "MRT Putrajaya Line", "mode": "MRT", "operator": "Rapid Rail", "status": "active", "source": "Selangor_Rail_Network_Cleaned.zip (user finalized, duplicates removed)" }, "geometry": { "type": "Point", "coordinates": [ 101.710544276000206, 3.167796707000144, 0.0 ] } },
{ "type": "Feature", "properties": { "station_name": "Ampang Park", "station_code": "PY20", "line_name": "MRT Putrajaya Line", "mode": "MRT", "operator": "Rapid Rail", "status": "active", "source": "Selangor_Rail_Network_Cleaned.zip (user finalized, duplicates removed)" }, "geometry": { "type": "Point", "coordinates": [ 101.718102075000175, 3.161616053000197, 0.0 ] } },
{ "type": "Feature", "properties": { "station_name": "Persiaran KLCC", "station_code": "PY21", "line_name": "MRT Putrajaya Line", "mode": "MRT", "operator": "Rapid Rail", "status": "active", "source": "Selangor_Rail_Network_Cleaned.zip (user finalized, duplicates removed)" }, "geometry": { "type": "Point", "coordinates": [ 101.718198289000142, 3.156880785000184, 0.0 ] } },
{ "type": "Feature", "properties": { "station_name": "Conlay", "station_code": "PY22", "line_name": "MRT Putrajaya Line", "mode": "MRT", "operator": "Rapid Rail", "status": "active", "source": "Selangor_Rail_Network_Cleaned.zip (user finalized, duplicates removed)" }, "geometry": { "type": "Point", "coordinates": [ 101.718393842000182, 3.150475646000273, 0.0 ] } },
{ "type": "Feature", "properties": { "station_name": "Tun Razak Exchange", "station_code": "PY23", "line_name": "MRT Putrajaya Line", "mode": "MRT", "operator": "Rapid Rail", "status": "active", "source": "Selangor_Rail_Network_Cleaned.zip (user finalized, duplicates removed)" }, "geometry": { "type": "Point", "coordinates": [ 101.72009219700017, 3.142380113000244, 0.0 ] } },
{ "type": "Feature", "properties": { "station_name": "Chan Sow Lin", "station_code": "PY24", "line_name": "MRT Putrajaya Line", "mode": "MRT", "operator": "Rapid Rail", "status": "active", "source": "Selangor_Rail_Network_Cleaned.zip (user finalized, duplicates removed)" }, "geometry": { "type": "Point", "coordinates": [ 101.716572085595232, 3.128398896992194, 0.0 ] } },
{ "type": "Feature", "properties": { "station_name": "Kuchai", "station_code": "PY27", "line_name": "MRT Putrajaya Line", "mode": "MRT", "operator": "Rapid Rail", "status": "active", "source": "Selangor_Rail_Network_Cleaned.zip (user finalized, duplicates removed)" }, "geometry": { "type": "Point", "coordinates": [ 101.694070316938635, 3.089591406150531, 0.0 ] } },
{ "type": "Feature", "properties": { "station_name": "Taman Naga Emas", "station_code": "PY28", "line_name": "MRT Putrajaya Line", "mode": "MRT", "operator": "Rapid Rail", "status": "active", "source": "Selangor_Rail_Network_Cleaned.zip (user finalized, duplicates removed)" }, "geometry": { "type": "Point", "coordinates": [ 101.699487283545622, 3.077688359127516, 0.0 ] } },
{ "type": "Feature", "properties": { "station_name": "Sungai Besi", "station_code": "PY29", "line_name": "MRT Putrajaya Line", "mode": "MRT", "operator": "Rapid Rail", "status": "active", "source": "Selangor_Rail_Network_Cleaned.zip (user finalized, duplicates removed)" }, "geometry": { "type": "Point", "coordinates": [ 101.708284805206915, 3.063871085010532, 0.0 ] } },
{ "type": "Feature", "properties": { "station_name": "Serdang Raya Utara", "station_code": "PY31", "line_name": "MRT Putrajaya Line", "mode": "MRT", "operator": "Rapid Rail", "status": "active", "source": "Selangor_Rail_Network_Cleaned.zip (user finalized, duplicates removed)" }, "geometry": { "type": "Point", "coordinates": [ 101.7049110512407, 3.04176267527192, 0.0 ] } },
{ "type": "Feature", "properties": { "station_name": "Serdang Raya Selatan", "station_code": "PY32", "line_name": "MRT Putrajaya Line", "mode": "MRT", "operator": "Rapid Rail", "status": "active", "source": "Selangor_Rail_Network_Cleaned.zip (user finalized, duplicates removed)" }, "geometry": { "type": "Point", "coordinates": [ 101.707603348223216, 3.028339072792267, 0.0 ] } },
{ "type": "Feature", "properties": { "station_name": "Serdang Jaya", "station_code": "PY33", "line_name": "MRT Putrajaya Line", "mode": "MRT", "operator": "Rapid Rail", "status": "active", "source": "Selangor_Rail_Network_Cleaned.zip (user finalized, duplicates removed)" }, "geometry": { "type": "Point", "coordinates": [ 101.708921494401622, 3.021580126255612, 0.0 ] } },
{ "type": "Feature", "properties": { "station_name": "UPM", "station_code": "PY34", "line_name": "MRT Putrajaya Line", "mode": "MRT", "operator": "Rapid Rail", "status": "active", "source": "Selangor_Rail_Network_Cleaned.zip (user finalized, duplicates removed)" }, "geometry": { "type": "Point", "coordinates": [ 101.705421029579725, 3.008454705167548, 0.0 ] } },
{ "type": "Feature", "properties": { "station_name": "Taman Equine", "station_code": "PY36", "line_name": "MRT Putrajaya Line", "mode": "MRT", "operator": "Rapid Rail", "status": "active", "source": "Selangor_Rail_Network_Cleaned.zip (user finalized, duplicates removed)" }, "geometry": { "type": "Point", "coordinates": [ 101.672533392342885, 2.989476701495645, 0.0 ] } },
{ "type": "Feature", "properties": { "station_name": "Putra Permai", "station_code": "PY37", "line_name": "MRT Putrajaya Line", "mode": "MRT", "operator": "Rapid Rail", "status": "active", "source": "Selangor_Rail_Network_Cleaned.zip (user finalized, duplicates removed)" }, "geometry": { "type": "Point", "coordinates": [ 101.660520466000179, 2.983022807000097, 0.0 ] } },
{ "type": "Feature", "properties": { "station_name": "16 Sierra", "station_code": "PY38", "line_name": "MRT Putrajaya Line", "mode": "MRT", "operator": "Rapid Rail", "status": "active", "source": "Selangor_Rail_Network_Cleaned.zip (user finalized, duplicates removed)" }, "geometry": { "type": "Point", "coordinates": [ 101.654939892000186, 2.965344783000067, 0.0 ] } },
{ "type": "Feature", "properties": { "station_name": "Cyberjaya Utara", "station_code": "PY39", "line_name": "MRT Putrajaya Line", "mode": "MRT", "operator": "Rapid Rail", "status": "active", "source": "Selangor_Rail_Network_Cleaned.zip (user finalized, duplicates removed)" }, "geometry": { "type": "Point", "coordinates": [ 101.655906968000167, 2.949207406000047, 0.0 ] } },
{ "type": "Feature", "properties": { "station_name": "Cyberjaya City Centre", "station_code": "PY40", "line_name": "MRT Putrajaya Line", "mode": "MRT", "operator": "Rapid Rail", "status": "active", "source": "Selangor_Rail_Network_Cleaned.zip (user finalized, duplicates removed)" }, "geometry": { "type": "Point", "coordinates": [ 101.665510560676793, 2.938970396216155, 0.0 ] } },
{ "type": "Feature", "properties": { "station_name": "Putrajaya Sentral", "station_code": "PY41", "line_name": "MRT Putrajaya Line", "mode": "MRT", "operator": "Rapid Rail", "status": "active", "source": "Selangor_Rail_Network_Cleaned.zip (user finalized, duplicates removed)" }, "geometry": { "type": "Point", "coordinates": [ 101.671607850539431, 2.931578021464434, 0.0 ] } },
{ "type": "Feature", "properties": { "station_name": "KL Sentral", "station_code": "MR01", "line_name": "KL Monorail Line", "mode": "Monorail", "operator": "Rapid Rail", "status": "active", "source": "Selangor_Rail_Network_Cleaned.zip (user finalized, duplicates removed)" }, "geometry": { "type": "Point", "coordinates": [ 101.68779635619255, 3.13273500629449, 0.0 ] } },
{ "type": "Feature", "properties": { "station_name": "Tun Sambanthan", "station_code": "MR02", "line_name": "KL Monorail Line", "mode": "Monorail", "operator": "Rapid Rail", "status": "active", "source": "Selangor_Rail_Network_Cleaned.zip (user finalized, duplicates removed)" }, "geometry": { "type": "Point", "coordinates": [ 101.692629937402316, 3.132981571667274, 0.0 ] } },
{ "type": "Feature", "properties": { "station_name": "Maharajalela", "station_code": "MR03", "line_name": "KL Monorail Line", "mode": "Monorail", "operator": "Rapid Rail", "status": "active", "source": "Selangor_Rail_Network_Cleaned.zip (user finalized, duplicates removed)" }, "geometry": { "type": "Point", "coordinates": [ 101.697493881126647, 3.137482518098105, 0.0 ] } },
{ "type": "Feature", "properties": { "station_name": "Hang Tuah", "station_code": "MR04", "line_name": "KL Monorail Line", "mode": "Monorail", "operator": "Rapid Rail", "status": "active", "source": "Selangor_Rail_Network_Cleaned.zip (user finalized, duplicates removed)" }, "geometry": { "type": "Point", "coordinates": [ 101.705895852627634, 3.140825006410424, 0.0 ] } },
{ "type": "Feature", "properties": { "station_name": "Imbi", "station_code": "MR05", "line_name": "KL Monorail Line", "mode": "Monorail", "operator": "Rapid Rail", "status": "active", "source": "Selangor_Rail_Network_Cleaned.zip (user finalized, duplicates removed)" }, "geometry": { "type": "Point", "coordinates": [ 101.709688062221261, 3.142958061185489, 0.0 ] } },
{ "type": "Feature", "properties": { "station_name": "Bukit Bintang", "station_code": "MR06", "line_name": "KL Monorail Line", "mode": "Monorail", "operator": "Rapid Rail", "status": "active", "source": "Selangor_Rail_Network_Cleaned.zip (user finalized, duplicates removed)" }, "geometry": { "type": "Point", "coordinates": [ 101.711326649226535, 3.146025096137434, 0.0 ] } },
{ "type": "Feature", "properties": { "station_name": "Raja Chulan", "station_code": "MR07", "line_name": "KL Monorail Line", "mode": "Monorail", "operator": "Rapid Rail", "status": "active", "source": "Selangor_Rail_Network_Cleaned.zip (user finalized, duplicates removed)" }, "geometry": { "type": "Point", "coordinates": [ 101.710434700983114, 3.150753181234524, 0.0 ] } },
{ "type": "Feature", "properties": { "station_name": "Bukit Nanas", "station_code": "MR08", "line_name": "KL Monorail Line", "mode": "Monorail", "operator": "Rapid Rail", "status": "active", "source": "Selangor_Rail_Network_Cleaned.zip (user finalized, duplicates removed)" }, "geometry": { "type": "Point", "coordinates": [ 101.704719152798859, 3.155945088515757, 0.0 ] } },
{ "type": "Feature", "properties": { "station_name": "Medan Tuanku", "station_code": "MR09", "line_name": "KL Monorail Line", "mode": "Monorail", "operator": "Rapid Rail", "status": "active", "source": "Selangor_Rail_Network_Cleaned.zip (user finalized, duplicates removed)" }, "geometry": { "type": "Point", "coordinates": [ 101.697656885584806, 3.161871704250168, 0.0 ] } },
{ "type": "Feature", "properties": { "station_name": "Chow Kit", "station_code": "MR10", "line_name": "KL Monorail Line", "mode": "Monorail", "operator": "Rapid Rail", "status": "active", "source": "Selangor_Rail_Network_Cleaned.zip (user finalized, duplicates removed)" }, "geometry": { "type": "Point", "coordinates": [ 101.698295869846774, 3.167449694015908, 0.0 ] } },
{ "type": "Feature", "properties": { "station_name": "Titiwangsa", "station_code": "MR11", "line_name": "KL Monorail Line", "mode": "Monorail", "operator": "Rapid Rail", "status": "active", "source": "Selangor_Rail_Network_Cleaned.zip (user finalized, duplicates removed)" }, "geometry": { "type": "Point", "coordinates": [ 101.695877466931748, 3.173221786882992, 0.0 ] } },
{ "type": "Feature", "properties": { "station_name": "Setia Jaya", "station_code": "SB1", "line_name": "BRT Sunway Line", "mode": "BRT", "operator": "Rapid Bus", "status": "active", "source": "Selangor_Rail_Network_Cleaned.zip (user finalized, duplicates removed)" }, "geometry": { "type": "Point", "coordinates": [ 101.611344820826972, 3.083085815354832, 0.0 ] } },
{ "type": "Feature", "properties": { "station_name": "Mentari", "station_code": "SB2", "line_name": "BRT Sunway Line", "mode": "BRT", "operator": "Rapid Bus", "status": "active", "source": "Selangor_Rail_Network_Cleaned.zip (user finalized, duplicates removed)" }, "geometry": { "type": "Point", "coordinates": [ 101.61021262349837, 3.076890029428473, 0.0 ] } },
{ "type": "Feature", "properties": { "station_name": "Sunway Lagoon", "station_code": "SB3", "line_name": "BRT Sunway Line", "mode": "BRT", "operator": "Rapid Bus", "status": "active", "source": "Selangor_Rail_Network_Cleaned.zip (user finalized, duplicates removed)" }, "geometry": { "type": "Point", "coordinates": [ 101.610746752360484, 3.069306185508266, 0.0 ] } },
{ "type": "Feature", "properties": { "station_name": "SunMed", "station_code": "SB4", "line_name": "BRT Sunway Line", "mode": "BRT", "operator": "Rapid Bus", "status": "active", "source": "Selangor_Rail_Network_Cleaned.zip (user finalized, duplicates removed)" }, "geometry": { "type": "Point", "coordinates": [ 101.60654028543938, 3.065492869800701, 0.0 ] } },
{ "type": "Feature", "properties": { "station_name": "SunU-Monash", "station_code": "SB5", "line_name": "BRT Sunway Line", "mode": "BRT", "operator": "Rapid Bus", "status": "active", "source": "Selangor_Rail_Network_Cleaned.zip (user finalized, duplicates removed)" }, "geometry": { "type": "Point", "coordinates": [ 101.598813273591901, 3.065123744682008, 0.0 ] } },
{ "type": "Feature", "properties": { "station_name": "South Quay-USJ1", "station_code": "SB6", "line_name": "BRT Sunway Line", "mode": "BRT", "operator": "Rapid Bus", "status": "active", "source": "Selangor_Rail_Network_Cleaned.zip (user finalized, duplicates removed)" }, "geometry": { "type": "Point", "coordinates": [ 101.594158621199952, 3.061296160496303, 0.0 ] } },
{ "type": "Feature", "properties": { "station_name": "USJ7", "station_code": "SB7", "line_name": "BRT Sunway Line", "mode": "BRT", "operator": "Rapid Bus", "status": "active", "source": "Selangor_Rail_Network_Cleaned.zip (user finalized, duplicates removed)" }, "geometry": { "type": "Point", "coordinates": [ 101.591999985205675, 3.054802753790852, 0.0 ] } },
{ "type": "Feature", "properties": { "station_name": "KL Sentral", "station_code": "", "line_name": "KLIA Transit / KLIA Ekspres", "mode": "ERL", "operator": "Express Rail Link Sdn Bhd", "status": "active", "source": "Selangor_Rail_Network_Cleaned.zip (user finalized, duplicates removed)" }, "geometry": { "type": "Point", "coordinates": [ 101.686448173148563, 3.134351297256552, 0.0 ] } },
{ "type": "Feature", "properties": { "station_name": "Bandar Tasik Selatan", "station_code": "", "line_name": "KLIA Transit", "mode": "ERL", "operator": "Express Rail Link Sdn Bhd", "status": "active", "source": "Selangor_Rail_Network_Cleaned.zip (user finalized, duplicates removed)" }, "geometry": { "type": "Point", "coordinates": [ 101.710836903876213, 3.076568579923576, 0.0 ] } },
{ "type": "Feature", "properties": { "station_name": "Putrajaya", "station_code": "", "line_name": "KLIA Transit", "mode": "ERL", "operator": "Express Rail Link Sdn Bhd", "status": "active", "source": "Selangor_Rail_Network_Cleaned.zip (user finalized, duplicates removed)" }, "geometry": { "type": "Point", "coordinates": [ 101.670995173344835, 2.931810024418283, 0.0 ] } },
{ "type": "Feature", "properties": { "station_name": "Salak Tinggi", "station_code": "", "line_name": "KLIA Transit", "mode": "ERL", "operator": "Express Rail Link Sdn Bhd", "status": "active", "source": "Selangor_Rail_Network_Cleaned.zip (user finalized, duplicates removed)" }, "geometry": { "type": "Point", "coordinates": [ 101.7133937057569, 2.825532970050807, 0.0 ] } },
{ "type": "Feature", "properties": { "station_name": "KLIA T1", "station_code": "", "line_name": "KLIA Transit / KLIA Ekspres", "mode": "ERL", "operator": "Express Rail Link Sdn Bhd", "status": "active", "source": "Selangor_Rail_Network_Cleaned.zip (user finalized, duplicates removed)" }, "geometry": { "type": "Point", "coordinates": [ 101.704440189790049, 2.754748892393986, 0.0 ] } },
{ "type": "Feature", "properties": { "station_name": "KLIA T2", "station_code": "", "line_name": "KLIA Transit / KLIA Ekspres", "mode": "ERL", "operator": "Express Rail Link Sdn Bhd", "status": "active", "source": "Selangor_Rail_Network_Cleaned.zip (user finalized, duplicates removed)" }, "geometry": { "type": "Point", "coordinates": [ 101.685180421409157, 2.744509567952911, 0.0 ] } },
{ "type": "Feature", "properties": { "station_name": "Kuala Kubu Bharu", "station_code": "KA14", "line_name": "KTM Port Klang Line", "mode": "KTM Komuter", "operator": "KTMB", "status": "active", "source": "Selangor_Rail_Network_Cleaned.zip (user finalized, duplicates removed)" }, "geometry": { "type": "Point", "coordinates": [ 101.639456203751976, 3.553206347116814, 0.0 ] } },
{ "type": "Feature", "properties": { "station_name": "Rasa", "station_code": "KA13", "line_name": "KTM Port Klang Line", "mode": "KTM Komuter", "operator": "KTMB", "status": "active", "source": "Selangor_Rail_Network_Cleaned.zip (user finalized, duplicates removed)" }, "geometry": { "type": "Point", "coordinates": [ 101.634167679515912, 3.500329335792357, 0.0 ] } },
{ "type": "Feature", "properties": { "station_name": "Batang Kali", "station_code": "KA12", "line_name": "KTM Port Klang Line", "mode": "KTM Komuter", "operator": "KTMB", "status": "active", "source": "Selangor_Rail_Network_Cleaned.zip (user finalized, duplicates removed)" }, "geometry": { "type": "Point", "coordinates": [ 101.637778726999912, 3.468361850179952, 0.0 ] } },
{ "type": "Feature", "properties": { "station_name": "Serendah", "station_code": "KA11", "line_name": "KTM Port Klang Line", "mode": "KTM Komuter", "operator": "KTMB", "status": "active", "source": "Selangor_Rail_Network_Cleaned.zip (user finalized, duplicates removed)" }, "geometry": { "type": "Point", "coordinates": [ 101.614541149955429, 3.376104737197292, 0.0 ] } },
{ "type": "Feature", "properties": { "station_name": "Rawang", "station_code": "KA10", "line_name": "KTM Port Klang Line", "mode": "KTM Komuter", "operator": "KTMB", "status": "active", "source": "Selangor_Rail_Network_Cleaned.zip (user finalized, duplicates removed)" }, "geometry": { "type": "Point", "coordinates": [ 101.57496459099707, 3.318802662971409, 0.0 ] } },
{ "type": "Feature", "properties": { "station_name": "Kuang", "station_code": "KA09", "line_name": "KTM Port Klang Line", "mode": "KTM Komuter", "operator": "KTMB", "status": "active", "source": "Selangor_Rail_Network_Cleaned.zip (user finalized, duplicates removed)" }, "geometry": { "type": "Point", "coordinates": [ 101.555018430110678, 3.258422702781996, 0.0 ] } },
{ "type": "Feature", "properties": { "station_name": "Sungai Buloh", "station_code": "KA08", "line_name": "KTM Port Klang Line", "mode": "KTM Komuter", "operator": "KTMB", "status": "active", "source": "Selangor_Rail_Network_Cleaned.zip (user finalized, duplicates removed)" }, "geometry": { "type": "Point", "coordinates": [ 101.580001219296562, 3.206243172988078, 0.0 ] } },
{ "type": "Feature", "properties": { "station_name": "Kepong Sentral", "station_code": "KA07", "line_name": "KTM Port Klang Line", "mode": "KTM Komuter", "operator": "KTMB", "status": "active", "source": "Selangor_Rail_Network_Cleaned.zip (user finalized, duplicates removed)" }, "geometry": { "type": "Point", "coordinates": [ 101.628516353542622, 3.208697432302268, 0.0 ] } },
{ "type": "Feature", "properties": { "station_name": "Kepong", "station_code": "KA06", "line_name": "KTM Port Klang Line", "mode": "KTM Komuter", "operator": "KTMB", "status": "active", "source": "Selangor_Rail_Network_Cleaned.zip (user finalized, duplicates removed)" }, "geometry": { "type": "Point", "coordinates": [ 101.637275156190412, 3.202665686059021, 0.0 ] } },
{ "type": "Feature", "properties": { "station_name": "Segambut", "station_code": "KA05", "line_name": "KTM Port Klang Line", "mode": "KTM Komuter", "operator": "KTMB", "status": "active", "source": "Selangor_Rail_Network_Cleaned.zip (user finalized, duplicates removed)" }, "geometry": { "type": "Point", "coordinates": [ 101.664217981352266, 3.186412252485112, 0.0 ] } },
{ "type": "Feature", "properties": { "station_name": "Putra", "station_code": "KA04", "line_name": "KTM Port Klang Line", "mode": "KTM Komuter", "operator": "KTMB", "status": "active", "source": "Selangor_Rail_Network_Cleaned.zip (user finalized, duplicates removed)" }, "geometry": { "type": "Point", "coordinates": [ 101.690792309159434, 3.165474599775844, 0.0 ] } },
{ "type": "Feature", "properties": { "station_name": "Bank Negara", "station_code": "KA03", "line_name": "KTM Port Klang Line", "mode": "KTM Komuter", "operator": "KTMB", "status": "active", "source": "Selangor_Rail_Network_Cleaned.zip (user finalized, duplicates removed)" }, "geometry": { "type": "Point", "coordinates": [ 101.69275316691224, 3.154290972059297, 0.0 ] } },
{ "type": "Feature", "properties": { "station_name": "Kuala Lumpur", "station_code": "KA02", "line_name": "KTM Port Klang Line", "mode": "KTM Komuter", "operator": "KTMB", "status": "active", "source": "Selangor_Rail_Network_Cleaned.zip (user finalized, duplicates removed)" }, "geometry": { "type": "Point", "coordinates": [ 101.693733595788672, 3.139933034975723, 0.0 ] } },
{ "type": "Feature", "properties": { "station_name": "KL Sentral", "station_code": "KA01", "line_name": "KTM Port Klang Line", "mode": "KTM Komuter", "operator": "KTMB", "status": "active", "source": "Selangor_Rail_Network_Cleaned.zip (user finalized, duplicates removed)" }, "geometry": { "type": "Point", "coordinates": [ 101.686297504906733, 3.134535838721714, 0.0 ] } },
{ "type": "Feature", "properties": { "station_name": "Abdullah Hukum", "station_code": "KD01", "line_name": "KTM Port Klang Line", "mode": "KTM Komuter", "operator": "KTMB", "status": "active", "source": "Selangor_Rail_Network_Cleaned.zip (user finalized, duplicates removed)" }, "geometry": { "type": "Point", "coordinates": [ 101.673318466353393, 3.118851553111305, 0.0 ] } },
{ "type": "Feature", "properties": { "station_name": "Angkasapuri", "station_code": "KD02", "line_name": "KTM Port Klang Line", "mode": "KTM Komuter", "operator": "KTMB", "status": "active", "source": "Selangor_Rail_Network_Cleaned.zip (user finalized, duplicates removed)" }, "geometry": { "type": "Point", "coordinates": [ 101.673591274673868, 3.11267651927194, 0.0 ] } },
{ "type": "Feature", "properties": { "station_name": "Pantai Dalam", "station_code": "KD03", "line_name": "KTM Port Klang Line", "mode": "KTM Komuter", "operator": "KTMB", "status": "active", "source": "Selangor_Rail_Network_Cleaned.zip (user finalized, duplicates removed)" }, "geometry": { "type": "Point", "coordinates": [ 101.670018206758755, 3.095513701725618, 0.0 ] } },
{ "type": "Feature", "properties": { "station_name": "Petaling", "station_code": "KD04", "line_name": "KTM Port Klang Line", "mode": "KTM Komuter", "operator": "KTMB", "status": "active", "source": "Selangor_Rail_Network_Cleaned.zip (user finalized, duplicates removed)" }, "geometry": { "type": "Point", "coordinates": [ 101.664153859130238, 3.086242166381541, 0.0 ] } },
{ "type": "Feature", "properties": { "station_name": "Jalan Templer", "station_code": "KD05", "line_name": "KTM Port Klang Line", "mode": "KTM Komuter", "operator": "KTMB", "status": "active", "source": "Selangor_Rail_Network_Cleaned.zip (user finalized, duplicates removed)" }, "geometry": { "type": "Point", "coordinates": [ 101.656476265620142, 3.083464070880724, 0.0 ] } },
{ "type": "Feature", "properties": { "station_name": "Kampung Dato Harun", "station_code": "KD06", "line_name": "KTM Port Klang Line", "mode": "KTM Komuter", "operator": "KTMB", "status": "active", "source": "Selangor_Rail_Network_Cleaned.zip (user finalized, duplicates removed)" }, "geometry": { "type": "Point", "coordinates": [ 101.632269931220506, 3.084508394029915, 0.0 ] } },
{ "type": "Feature", "properties": { "station_name": "Seri Setia", "station_code": "KD07", "line_name": "KTM Port Klang Line", "mode": "KTM Komuter", "operator": "KTMB", "status": "active", "source": "Selangor_Rail_Network_Cleaned.zip (user finalized, duplicates removed)" }, "geometry": { "type": "Point", "coordinates": [ 101.621953235753935, 3.084524597315241, 0.0 ] } },
{ "type": "Feature", "properties": { "station_name": "Setia Jaya", "station_code": "KD08", "line_name": "KTM Port Klang Line", "mode": "KTM Komuter", "operator": "KTMB", "status": "active", "source": "Selangor_Rail_Network_Cleaned.zip (user finalized, duplicates removed)" }, "geometry": { "type": "Point", "coordinates": [ 101.611344820826972, 3.083085815354832, 0.0 ] } },
{ "type": "Feature", "properties": { "station_name": "Subang Jaya", "station_code": "KD09", "line_name": "KTM Port Klang Line", "mode": "KTM Komuter", "operator": "KTMB", "status": "active", "source": "Selangor_Rail_Network_Cleaned.zip (user finalized, duplicates removed)" }, "geometry": { "type": "Point", "coordinates": [ 101.58731191584576, 3.0847621457983, 0.0 ] } },
{ "type": "Feature", "properties": { "station_name": "Batu Tiga", "station_code": "KD10", "line_name": "KTM Port Klang Line", "mode": "KTM Komuter", "operator": "KTMB", "status": "active", "source": "Selangor_Rail_Network_Cleaned.zip (user finalized, duplicates removed)" }, "geometry": { "type": "Point", "coordinates": [ 101.55974110336976, 3.075896997536496, 0.0 ] } },
{ "type": "Feature", "properties": { "station_name": "Shah Alam", "station_code": "KD11", "line_name": "KTM Port Klang Line", "mode": "KTM Komuter", "operator": "KTMB", "status": "active", "source": "Selangor_Rail_Network_Cleaned.zip (user finalized, duplicates removed)" }, "geometry": { "type": "Point", "coordinates": [ 101.525274956944827, 3.056500615466374, 0.0 ] } },
{ "type": "Feature", "properties": { "station_name": "Padang Jawa", "station_code": "KD12", "line_name": "KTM Port Klang Line", "mode": "KTM Komuter", "operator": "KTMB", "status": "active", "source": "Selangor_Rail_Network_Cleaned.zip (user finalized, duplicates removed)" }, "geometry": { "type": "Point", "coordinates": [ 101.492742525159443, 3.052324045337858, 0.0 ] } },
{ "type": "Feature", "properties": { "station_name": "Bukit Badak", "station_code": "KD13", "line_name": "KTM Port Klang Line", "mode": "KTM Komuter", "operator": "KTMB", "status": "active", "source": "Selangor_Rail_Network_Cleaned.zip (user finalized, duplicates removed)" }, "geometry": { "type": "Point", "coordinates": [ 101.470408056700478, 3.036176438038103, 0.0 ] } },
{ "type": "Feature", "properties": { "station_name": "Klang", "station_code": "KD14", "line_name": "KTM Port Klang Line", "mode": "KTM Komuter", "operator": "KTMB", "status": "active", "source": "Selangor_Rail_Network_Cleaned.zip (user finalized, duplicates removed)" }, "geometry": { "type": "Point", "coordinates": [ 101.449662573673379, 3.043162972652457, 0.0 ] } },
{ "type": "Feature", "properties": { "station_name": "Teluk Pulai", "station_code": "KD15", "line_name": "KTM Port Klang Line", "mode": "KTM Komuter", "operator": "KTMB", "status": "active", "source": "Selangor_Rail_Network_Cleaned.zip (user finalized, duplicates removed)" }, "geometry": { "type": "Point", "coordinates": [ 101.431802743384637, 3.040437752963041, 0.0 ] } },
{ "type": "Feature", "properties": { "station_name": "Teluk Gadong", "station_code": "KD16", "line_name": "KTM Port Klang Line", "mode": "KTM Komuter", "operator": "KTMB", "status": "active", "source": "Selangor_Rail_Network_Cleaned.zip (user finalized, duplicates removed)" }, "geometry": { "type": "Point", "coordinates": [ 101.424923966118101, 3.033905802842546, 0.0 ] } },
{ "type": "Feature", "properties": { "station_name": "Kampung Raja Uda", "station_code": "KD17", "line_name": "KTM Port Klang Line", "mode": "KTM Komuter", "operator": "KTMB", "status": "active", "source": "Selangor_Rail_Network_Cleaned.zip (user finalized, duplicates removed)" }, "geometry": { "type": "Point", "coordinates": [ 101.410143213910473, 3.020267526415375, 0.0 ] } },
{ "type": "Feature", "properties": { "station_name": "Jalan Kastam", "station_code": "KD18", "line_name": "KTM Port Klang Line", "mode": "KTM Komuter", "operator": "KTMB", "status": "active", "source": "Selangor_Rail_Network_Cleaned.zip (user finalized, duplicates removed)" }, "geometry": { "type": "Point", "coordinates": [ 101.402645869280974, 3.013089398989888, 0.0 ] } },
{ "type": "Feature", "properties": { "station_name": "Pelabuhan Klang", "station_code": "KD19", "line_name": "KTM Port Klang Line", "mode": "KTM Komuter", "operator": "KTMB", "status": "active", "source": "Selangor_Rail_Network_Cleaned.zip (user finalized, duplicates removed)" }, "geometry": { "type": "Point", "coordinates": [ 101.391316730024172, 2.999690083504424, 0.0 ] } },
{ "type": "Feature", "properties": { "station_name": "Batu Caves", "station_code": "KC05", "line_name": "KTM Seremban Line", "mode": "KTM Komuter", "operator": "KTMB", "status": "active", "source": "Selangor_Rail_Network_Cleaned.zip (user finalized, duplicates removed)" }, "geometry": { "type": "Point", "coordinates": [ 101.681173592453561, 3.237769053381681, 0.0 ] } },
{ "type": "Feature", "properties": { "station_name": "Taman Wahyu", "station_code": "KC04", "line_name": "KTM Seremban Line", "mode": "KTM Komuter", "operator": "KTMB", "status": "active", "source": "Selangor_Rail_Network_Cleaned.zip (user finalized, duplicates removed)" }, "geometry": { "type": "Point", "coordinates": [ 101.672178106650776, 3.214466617257497, 0.0 ] } },
{ "type": "Feature", "properties": { "station_name": "Kampung Batu", "station_code": "KC03", "line_name": "KTM Seremban Line", "mode": "KTM Komuter", "operator": "KTMB", "status": "active", "source": "Selangor_Rail_Network_Cleaned.zip (user finalized, duplicates removed)" }, "geometry": { "type": "Point", "coordinates": [ 101.67563192810249, 3.204808670312715, 0.0 ] } },
{ "type": "Feature", "properties": { "station_name": "Batu Kentonmen", "station_code": "KC02", "line_name": "KTM Seremban Line", "mode": "KTM Komuter", "operator": "KTMB", "status": "active", "source": "Selangor_Rail_Network_Cleaned.zip (user finalized, duplicates removed)" }, "geometry": { "type": "Point", "coordinates": [ 101.681171883088268, 3.19831806990607, 0.0 ] } },
{ "type": "Feature", "properties": { "station_name": "Sentul", "station_code": "KC01", "line_name": "KTM Seremban Line", "mode": "KTM Komuter", "operator": "KTMB", "status": "active", "source": "Selangor_Rail_Network_Cleaned.zip (user finalized, duplicates removed)" }, "geometry": { "type": "Point", "coordinates": [ 101.688594217563761, 3.181854086099584, 0.0 ] } },
{ "type": "Feature", "properties": { "station_name": "Putra", "station_code": "KA04", "line_name": "KTM Seremban Line", "mode": "KTM Komuter", "operator": "KTMB", "status": "active", "source": "Selangor_Rail_Network_Cleaned.zip (user finalized, duplicates removed)" }, "geometry": { "type": "Point", "coordinates": [ 101.690792309159434, 3.165474599775844, 0.0 ] } },
{ "type": "Feature", "properties": { "station_name": "Bank Negara", "station_code": "KA03", "line_name": "KTM Seremban Line", "mode": "KTM Komuter", "operator": "KTMB", "status": "active", "source": "Selangor_Rail_Network_Cleaned.zip (user finalized, duplicates removed)" }, "geometry": { "type": "Point", "coordinates": [ 101.69275316691224, 3.154290972059297, 0.0 ] } },
{ "type": "Feature", "properties": { "station_name": "Kuala Lumpur", "station_code": "KA02", "line_name": "KTM Seremban Line", "mode": "KTM Komuter", "operator": "KTMB", "status": "active", "source": "Selangor_Rail_Network_Cleaned.zip (user finalized, duplicates removed)" }, "geometry": { "type": "Point", "coordinates": [ 101.693733595788672, 3.139933034975723, 0.0 ] } },
{ "type": "Feature", "properties": { "station_name": "KL Sentral", "station_code": "KA01", "line_name": "KTM Seremban Line", "mode": "KTM Komuter", "operator": "KTMB", "status": "active", "source": "Selangor_Rail_Network_Cleaned.zip (user finalized, duplicates removed)" }, "geometry": { "type": "Point", "coordinates": [ 101.686297504906733, 3.134535838721714, 0.0 ] } },
{ "type": "Feature", "properties": { "station_name": "Mid Valley", "station_code": "KB01", "line_name": "KTM Seremban Line", "mode": "KTM Komuter", "operator": "KTMB", "status": "active", "source": "Selangor_Rail_Network_Cleaned.zip (user finalized, duplicates removed)" }, "geometry": { "type": "Point", "coordinates": [ 101.679059306069092, 3.118680008905123, 0.0 ] } },
{ "type": "Feature", "properties": { "station_name": "Seputeh", "station_code": "KB02", "line_name": "KTM Seremban Line", "mode": "KTM Komuter", "operator": "KTMB", "status": "active", "source": "Selangor_Rail_Network_Cleaned.zip (user finalized, duplicates removed)" }, "geometry": { "type": "Point", "coordinates": [ 101.681371736297677, 3.113912153460118, 0.0 ] } },
{ "type": "Feature", "properties": { "station_name": "Salak Selatan", "station_code": "KB03", "line_name": "KTM Seremban Line", "mode": "KTM Komuter", "operator": "KTMB", "status": "active", "source": "Selangor_Rail_Network_Cleaned.zip (user finalized, duplicates removed)" }, "geometry": { "type": "Point", "coordinates": [ 101.705097311369641, 3.098483416375466, 0.0 ] } },
{ "type": "Feature", "properties": { "station_name": "Bandar Tasik Selatan", "station_code": "KB04", "line_name": "KTM Seremban Line", "mode": "KTM Komuter", "operator": "KTMB", "status": "active", "source": "Selangor_Rail_Network_Cleaned.zip (user finalized, duplicates removed)" }, "geometry": { "type": "Point", "coordinates": [ 101.711016405631526, 3.076236823175156, 0.0 ] } },
{ "type": "Feature", "properties": { "station_name": "Serdang", "station_code": "KB05", "line_name": "KTM Seremban Line", "mode": "KTM Komuter", "operator": "KTMB", "status": "active", "source": "Selangor_Rail_Network_Cleaned.zip (user finalized, duplicates removed)" }, "geometry": { "type": "Point", "coordinates": [ 101.715848224198453, 3.023391262949528, 0.0 ] } },
{ "type": "Feature", "properties": { "station_name": "Kajang", "station_code": "KB06", "line_name": "KTM Seremban Line", "mode": "KTM Komuter", "operator": "KTMB", "status": "active", "source": "Selangor_Rail_Network_Cleaned.zip (user finalized, duplicates removed)" }, "geometry": { "type": "Point", "coordinates": [ 101.790474604921357, 2.982683528466525, 0.0 ] } },
{ "type": "Feature", "properties": { "station_name": "Kajang 2", "station_code": "KB06A", "line_name": "KTM Seremban Line", "mode": "KTM Komuter", "operator": "KTMB", "status": "active", "source": "Selangor_Rail_Network_Cleaned.zip (user finalized, duplicates removed)" }, "geometry": { "type": "Point", "coordinates": [ 101.791966697813379, 2.962536515354516, 0.0 ] } },
{ "type": "Feature", "properties": { "station_name": "UKM", "station_code": "KB07", "line_name": "KTM Seremban Line", "mode": "KTM Komuter", "operator": "KTMB", "status": "active", "source": "Selangor_Rail_Network_Cleaned.zip (user finalized, duplicates removed)" }, "geometry": { "type": "Point", "coordinates": [ 101.78779361448602, 2.939639950538163, 0.0 ] } },
{ "type": "Feature", "properties": { "station_name": "Bangi", "station_code": "KB08", "line_name": "KTM Seremban Line", "mode": "KTM Komuter", "operator": "KTMB", "status": "active", "source": "Selangor_Rail_Network_Cleaned.zip (user finalized, duplicates removed)" }, "geometry": { "type": "Point", "coordinates": [ 101.786186524378493, 2.90391757892129, 0.0 ] } },
{ "type": "Feature", "properties": { "station_name": "Taman Universiti", "station_code": "PY35", "line_name": "MRT Putrajaya Line", "mode": "MRT", "operator": "Rapid Rail", "status": "active", "source": "Selangor_Rail_Network_Cleaned.zip (user finalized, duplicates removed)" }, "geometry": { "type": "Point", "coordinates": [ 101.686917026946631, 2.999337050099122, 0.0 ] } }
]
}
